Raw;Country;RegionType;Region;CountyType;County;Included;LocalityType;Locality;StreetType;Street;HousingType;Housing;HostelType;Hostel;HouseNumberType;HouseNumber;HouseNumberAdditionally;SectionType;Section;ApartmentType;Apartment;RoomType;Room;Sector;FloorType;Floor;PostCode;Manually;NotAddress;Comment;AdditionalData
харківська 64033 кегичівський калинівка відсутня;;;[{'start': 0, 'end': 10}];;[{'start': 17, 'end': 29}];;;[{'start': 30, 'end': 39}];;;;;;;;;;;;;;;;;;;[{'start': 11, 'end': 16}];;;[{'start': 40, 'end': 48}];
дніпропетровська 49000 амур-нижньодніпровський дніпро донецьке шосе 15 276;;;[{'start': 0, 'end': 16}];;[{'start': 23, 'end': 46}];;;[{'start': 47, 'end': 53}];[{'start': 63, 'end': 67}];[{'start': 54, 'end': 62}];;;;;;[{'start': 68, 'end': 70}];;;;;[{'start': 71, 'end': 74}];;;;;;[{'start': 17, 'end': 22}];;;;
київ київ вул. я колоса д. 21 буд. кв. 1;;;[{'start': 0, 'end': 4}];;;;;[{'start': 5, 'end': 9}];[{'start': 10, 'end': 14}];[{'start': 15, 'end': 16}, {'start': 17, 'end': 23}];;;;;[{'start': 30, 'end': 34}];[{'start': 27, 'end': 29}];;;;[{'start': 35, 'end': 38}];[{'start': 39, 'end': 40}];;;;;;;;;;
дніпропетровська 52331 криничанський с. червона-українка вул. зелена 8;;;[{'start': 0, 'end': 16}];;[{'start': 23, 'end': 36}];;[{'start': 37, 'end': 39}];[{'start': 40, 'end': 56}];[{'start': 57, 'end': 61}];[{'start': 62, 'end': 68}];;;;;;[{'start': 69, 'end': 70}];;;;;;;;;;;[{'start': 17, 'end': 22}];;;;
херсонська 10000 білозерський петрівське вул. харченко 22;;;[{'start': 0, 'end': 10}];;[{'start': 17, 'end': 29}];;;[{'start': 30, 'end': 40}];[{'start': 41, 'end': 45}];[{'start': 46, 'end': 54}];;;;;;[{'start': 55, 'end': 57}];;;;;;;;;;;[{'start': 11, 'end': 16}];;;;
полтавська 38630 котелевський сел. милорадове вул. шевченка 21;;;[{'start': 0, 'end': 10}];;[{'start': 17, 'end': 29}];;[{'start': 30, 'end': 34}];[{'start': 35, 'end': 45}];[{'start': 46, 'end': 50}];[{'start': 51, 'end': 59}];;;;;;[{'start': 60, 'end': 62}];;;;;;;;;;;[{'start': 11, 'end': 16}];;;;
одеська 67500 комінтернівський комінтернівське вулиця київська 5;;;[{'start': 0, 'end': 7}];;[{'start': 14, 'end': 30}];;;[{'start': 31, 'end': 46}];[{'start': 47, 'end': 53}];[{'start': 54, 'end': 62}];;;;;;[{'start': 63, 'end': 64}];;;;;;;;;;;[{'start': 8, 'end': 13}];;;;
одеська 65000 м. одеса вул. ак. глушко 22 104;;;[{'start': 0, 'end': 7}];;;;[{'start': 14, 'end': 16}];[{'start': 17, 'end': 22}];[{'start': 23, 'end': 27}];[{'start': 28, 'end': 38}];;;;;;[{'start': 39, 'end': 41}];;;;;[{'start': 42, 'end': 45}];;;;;;[{'start': 8, 'end': 13}];;;;
дніпропетровська 52200 м. жовті води вул. горького 23 26;;;[{'start': 0, 'end': 16}];;;;[{'start': 23, 'end': 25}];[{'start': 26, 'end': 36}];[{'start': 37, 'end': 41}];[{'start': 42, 'end': 50}];;;;;;[{'start': 51, 'end': 53}];;;;;[{'start': 54, 'end': 56}];;;;;;[{'start': 17, 'end': 22}];;;;
дніпропетровська 49000 дніпро пр. ім. газетиправда 106 526;;;[{'start': 0, 'end': 16}];;;;;[{'start': 23, 'end': 29}];[{'start': 30, 'end': 33}];[{'start': 34, 'end': 37}, {'start': 38, 'end': 50}];;;;;;[{'start': 51, 'end': 54}];;;;;[{'start': 55, 'end': 58}];;;;;;[{'start': 17, 'end': 22}];;;;
дніпропетровська 11111 м. дніпропетровськ вул. промислова 16 22;;;[{'start': 0, 'end': 16}];;;;[{'start': 23, 'end': 25}];[{'start': 26, 'end': 41}];[{'start': 42, 'end': 46}];[{'start': 47, 'end': 57}];;;;;;[{'start': 58, 'end': 60}];;;;;[{'start': 61, 'end': 63}];;;;;;[{'start': 17, 'end': 22}];;;;
донецька 86783 харцизький зугрес к. маркса 16 1;;;[{'start': 0, 'end': 8}];;[{'start': 15, 'end': 25}];;;[{'start': 26, 'end': 32}];;[{'start': 33, 'end': 42}];;;;;;[{'start': 43, 'end': 45}];;;;;[{'start': 46, 'end': 47}];;;;;;[{'start': 9, 'end': 14}];;;;
київська 07820 бородянський пісківка вул. ніни сосніної 11-б 7;;;[{'start': 0, 'end': 8}];;[{'start': 15, 'end': 27}];;;[{'start': 28, 'end': 36}];[{'start': 37, 'end': 41}];[{'start': 42, 'end': 55}];;;;;;[{'start': 56, 'end': 60}];;;;;[{'start': 61, 'end': 62}];;;;;;[{'start': 9, 'end': 14}];;;;
дніпропетровська 49000 индустриальный днепропетровск ул. дальневосточная 64 2;;;[{'start': 0, 'end': 16}];;[{'start': 23, 'end': 37}];;;[{'start': 38, 'end': 52}];[{'start': 53, 'end': 56}];[{'start': 57, 'end': 72}];;;;;;[{'start': 73, 'end': 75}];;;;;[{'start': 76, 'end': 77}];;;;;;[{'start': 17, 'end': 22}];;;;
запорізька 69000 запоріжжя радіаторна 27 а 32;;;[{'start': 0, 'end': 10}];;;;;[{'start': 17, 'end': 26}];;[{'start': 27, 'end': 37}];;;;;;[{'start': 38, 'end': 40}, {'start': 41, 'end': 42}];;;;;[{'start': 43, 'end': 45}];;;;;;[{'start': 11, 'end': 16}];;;;
харківська 61000 жовтневий харків вул. володимирська 15;;;[{'start': 0, 'end': 10}];;[{'start': 17, 'end': 26}];;;[{'start': 27, 'end': 33}];[{'start': 34, 'end': 38}];[{'start': 39, 'end': 52}];;;;;;[{'start': 53, 'end': 55}];;;;;;;;;;;[{'start': 11, 'end': 16}];;;;
дніпропетровська 51200 новомосковський м. новомосковськ пров. леваневського 60;;;[{'start': 0, 'end': 16}];;[{'start': 23, 'end': 38}];;[{'start': 39, 'end': 41}];[{'start': 42, 'end': 55}];[{'start': 56, 'end': 61}];[{'start': 62, 'end': 75}];;;;;;[{'start': 76, 'end': 78}];;;;;;;;;;;[{'start': 17, 'end': 22}];;;;
київська 08161 києво-святошинський тарасівка вул. островського 22 а;;;[{'start': 0, 'end': 8}];;[{'start': 15, 'end': 34}];;;[{'start': 35, 'end': 44}];[{'start': 45, 'end': 49}];[{'start': 50, 'end': 62}];;;;;;[{'start': 63, 'end': 65}, {'start': 66, 'end': 67}];;;;;;;;;;;[{'start': 9, 'end': 14}];;;;
дніпропетровська 49000 м. дніпро ж/м тополь 22 31;;;[{'start': 0, 'end': 16}];;;;[{'start': 23, 'end': 25}];[{'start': 26, 'end': 32}];[{'start': 33, 'end': 36}];[{'start': 37, 'end': 43}];;;;;;[{'start': 44, 'end': 46}];;;;;[{'start': 47, 'end': 49}];;;;;;[{'start': 17, 'end': 22}];;;;
тернопільська 47140 шумський бриків вул. ----- буд. -;;;[{'start': 0, 'end': 13}];;[{'start': 20, 'end': 28}];;;[{'start': 29, 'end': 35}];[{'start': 36, 'end': 40}];[{'start': 41, 'end': 46}];;;;;[{'start': 47, 'end': 51}];[{'start': 52, 'end': 53}];;;;;;;;;;;[{'start': 14, 'end': 19}];;;;
чернігівська 17531 прилуцький смош вул. берегова буд. 50 корпус - кв. -;;;[{'start': 0, 'end': 12}];;[{'start': 19, 'end': 29}];;;[{'start': 30, 'end': 34}];[{'start': 35, 'end': 39}];[{'start': 40, 'end': 48}];[{'start': 57, 'end': 63}];[{'start': 64, 'end': 65}];;;[{'start': 49, 'end': 53}];[{'start': 54, 'end': 56}];;;;[{'start': 66, 'end': 69}];[{'start': 70, 'end': 71}];;;;;;[{'start': 13, 'end': 18}];;;;
київська 02090 м. київ таращанським рв гу мвс україни в київській обл.;;;[{'start': 0, 'end': 8}];;[{'start': 23, 'end': 35}];;[{'start': 15, 'end': 17}];[{'start': 18, 'end': 22}];;;;;;;;;;;;;;;;;;;[{'start': 9, 'end': 14}];;;[{'start': 56, 'end': 65}, {'start': 66, 'end': 70}];
дніпропетровська 53200 нікопольський м. нікополь вул краснодонська 1/1 10;;;[{'start': 0, 'end': 16}];;[{'start': 23, 'end': 36}];;[{'start': 37, 'end': 39}];[{'start': 40, 'end': 48}];[{'start': 49, 'end': 52}];[{'start': 53, 'end': 66}];;;;;;[{'start': 67, 'end': 70}];;;;;[{'start': 71, 'end': 73}];;;;;;[{'start': 17, 'end': 22}];;;;
харківська 61039 жовтневий м. харків пр-т постишева 14 3;;;[{'start': 0, 'end': 10}];;[{'start': 17, 'end': 26}];;[{'start': 27, 'end': 29}];[{'start': 30, 'end': 36}];[{'start': 37, 'end': 41}];[{'start': 42, 'end': 51}];;;;;;[{'start': 52, 'end': 54}];;;;;[{'start': 55, 'end': 56}];;;;;;[{'start': 11, 'end': 16}];;;;
херсонська 10000 генічеський м. генічеськ вул. курасова 9 б 18;;;[{'start': 0, 'end': 10}];;[{'start': 17, 'end': 28}];;[{'start': 29, 'end': 31}];[{'start': 32, 'end': 41}];[{'start': 42, 'end': 46}];[{'start': 47, 'end': 55}];;;;;;[{'start': 56, 'end': 57}, {'start': 58, 'end': 59}];;;;;[{'start': 60, 'end': 62}];;;;;;[{'start': 11, 'end': 16}];;;;
львівська 79000 франківський м. львів вул. симоненка буд 7 кв. 24;;;[{'start': 0, 'end': 9}];;[{'start': 16, 'end': 28}];;[{'start': 29, 'end': 31}];[{'start': 32, 'end': 37}];[{'start': 38, 'end': 42}];[{'start': 43, 'end': 52}];;;;;[{'start': 53, 'end': 56}];[{'start': 57, 'end': 58}];;;;[{'start': 59, 'end': 62}];[{'start': 63, 'end': 65}];;;;;;[{'start': 10, 'end': 15}];;;;
донецька 87500 маріуполь маріуполь пров. январський буд. 23-а’’;;;[{'start': 0, 'end': 8}];;;;;[{'start': 15, 'end': 24}];[{'start': 35, 'end': 40}];[{'start': 41, 'end': 51}];;;;;[{'start': 52, 'end': 56}];[{'start': 57, 'end': 63}];;;;;;;;;;;[{'start': 9, 'end': 14}];;;;
черкаська 49000 драбівський с. гречанівка вул. відсутня буд. відсутній кв. відсутня;;;[{'start': 0, 'end': 9}];;[{'start': 16, 'end': 27}];;[{'start': 28, 'end': 30}];[{'start': 31, 'end': 41}];[{'start': 42, 'end': 46}];;;;;;[{'start': 56, 'end': 60}];;;;;[{'start': 71, 'end': 74}];;;;;;;[{'start': 10, 'end': 15}];;;[{'start': 47, 'end': 55}];
київська 09100 білоцерківський біла церква бул. 50 р. перемоги 88 6;;;[{'start': 0, 'end': 8}];;[{'start': 15, 'end': 30}];;;[{'start': 31, 'end': 35}, {'start': 36, 'end': 42}];[{'start': 43, 'end': 47}];[{'start': 51, 'end': 53}, {'start': 54, 'end': 62}];;;;;;[{'start': 63, 'end': 65}];;;;;[{'start': 66, 'end': 67}];;;;;;[{'start': 9, 'end': 14}];;;;
дніпропетровська 52300 криничанський кринички вулиця молодіжна 32;;;[{'start': 0, 'end': 16}];;[{'start': 23, 'end': 36}];;;[{'start': 37, 'end': 45}];[{'start': 46, 'end': 52}];[{'start': 53, 'end': 62}];;;;;;[{'start': 63, 'end': 65}];;;;;;;;;;;[{'start': 17, 'end': 22}];;;;
київ 01001 солом’янський м. київ вул. суздальська 4/6;;;[{'start': 0, 'end': 4}];;[{'start': 11, 'end': 24}];;[{'start': 25, 'end': 27}];[{'start': 28, 'end': 32}];[{'start': 33, 'end': 37}];[{'start': 38, 'end': 49}];;;;;;[{'start': 50, 'end': 53}];;;;;;;;;;;[{'start': 5, 'end': 10}];;;;
харківська 61000 ленінський харків пров. борщівський 9;;;[{'start': 0, 'end': 10}];;[{'start': 17, 'end': 27}];;;[{'start': 28, 'end': 34}];[{'start': 35, 'end': 40}];[{'start': 41, 'end': 52}];;;;;;[{'start': 53, 'end': 54}];;;;;;;;;;;[{'start': 11, 'end': 16}];;;;
дніпропетровська 51200 новомосковський м. новомосковськ вул. з. білої 01 66;;;[{'start': 0, 'end': 16}];;[{'start': 23, 'end': 38}];;[{'start': 39, 'end': 41}];[{'start': 42, 'end': 55}];[{'start': 56, 'end': 60}];[{'start': 61, 'end': 63}, {'start': 64, 'end': 69}];;;;;;[{'start': 70, 'end': 72}];;;;;[{'start': 73, 'end': 75}];;;;;;[{'start': 17, 'end': 22}];;;;
луганська 94343 городище горького 24;;;[{'start': 0, 'end': 9}];;;;;[{'start': 16, 'end': 24}];;[{'start': 25, 'end': 33}];;;;;;[{'start': 34, 'end': 36}];;;;;;;;;;;[{'start': 10, 'end': 15}];;;;
дніпропетровська 53200 нікопольський м. нікополь вул. к. лібкнехта буд. 148 гурт. кв. 51;;;[{'start': 0, 'end': 16}];;[{'start': 23, 'end': 36}];;[{'start': 37, 'end': 39}];[{'start': 40, 'end': 48}];[{'start': 49, 'end': 53}];[{'start': 54, 'end': 56}, {'start': 57, 'end': 66}];;;[{'start': 76, 'end': 81}];;[{'start': 67, 'end': 71}];[{'start': 72, 'end': 75}];;;;[{'start': 82, 'end': 85}];[{'start': 86, 'end': 88}];;;;;;[{'start': 17, 'end': 22}];;;;
київська броварський р-н с рожни вул. старе село 1 буд. кв. 2090;;;[{'start': 0, 'end': 8}];[{'start': 21, 'end': 24}];[{'start': 9, 'end': 20}];;[{'start': 25, 'end': 26}];[{'start': 27, 'end': 32}];[{'start': 33, 'end': 37}];[{'start': 38, 'end': 43}, {'start': 44, 'end': 48}];;;;;[{'start': 51, 'end': 55}];[{'start': 49, 'end': 50}];;;;[{'start': 56, 'end': 59}];[{'start': 60, 'end': 64}];;;;;;;;;;
київська 02218 киев радужная 37 кв 36;;;[{'start': 0, 'end': 8}];;;;;[{'start': 15, 'end': 19}];;[{'start': 20, 'end': 28}];;;;;;[{'start': 29, 'end': 31}];;;;[{'start': 32, 'end': 34}];[{'start': 35, 'end': 37}];;;;;;[{'start': 9, 'end': 14}];;;;
дніпропетровська 49000 дніпропетровський п. кировка улл. куйбешева 70;;;[{'start': 0, 'end': 16}];;[{'start': 23, 'end': 40}];;[{'start': 41, 'end': 43}];[{'start': 44, 'end': 51}];[{'start': 52, 'end': 56}];[{'start': 57, 'end': 66}];;;;;;[{'start': 67, 'end': 69}];;;;;;;;;;;[{'start': 17, 'end': 22}];;;;
херсонська 73485 херсон антонівка вулиця будьоного 7 а;;;[{'start': 0, 'end': 10}];;;[{'start': 17, 'end': 23}];;[{'start': 24, 'end': 33}];[{'start': 34, 'end': 40}];[{'start': 41, 'end': 50}];;;;;;[{'start': 51, 'end': 52}, {'start': 53, 'end': 54}];;;;;;;;;;;[{'start': 11, 'end': 16}];;;;
дніпропетровська 53200 нікопольський нікополь с українка вул. садова 33;;;[{'start': 0, 'end': 16}];;[{'start': 23, 'end': 36}];[{'start': 37, 'end': 45}];[{'start': 46, 'end': 47}];[{'start': 48, 'end': 56}];[{'start': 57, 'end': 61}];[{'start': 62, 'end': 68}];;;;;;[{'start': 69, 'end': 71}];;;;;;;;;;;[{'start': 17, 'end': 22}];;;;
донецька 49000 дніпро дніпро вул інженерна 12 72;;;[{'start': 0, 'end': 8}];;[{'start': 15, 'end': 21}];;;[{'start': 22, 'end': 28}];[{'start': 29, 'end': 32}];[{'start': 33, 'end': 42}];;;;;;[{'start': 43, 'end': 45}];;;;;[{'start': 46, 'end': 48}];;;;;;[{'start': 9, 'end': 14}];;;;
кіровоградська 01001 київ київ пр. маяковського 42/13 93;;;[{'start': 0, 'end': 14}];;[{'start': 21, 'end': 25}];;;[{'start': 26, 'end': 30}];[{'start': 31, 'end': 34}];[{'start': 35, 'end': 47}];;;;;;[{'start': 48, 'end': 53}];;;;;[{'start': 54, 'end': 56}];;;;;;[{'start': 15, 'end': 20}];;;;
дніпропетровська 50000 кривий ріг кривий ріг вул. мкр. сонячний 22 101;;;[{'start': 0, 'end': 16}];;[{'start': 23, 'end': 29}, {'start': 30, 'end': 33}];;;[{'start': 34, 'end': 40}, {'start': 41, 'end': 44}];[{'start': 45, 'end': 49}, {'start': 50, 'end': 54}];[{'start': 55, 'end': 63}];;;;;;[{'start': 64, 'end': 66}];;;;;[{'start': 67, 'end': 70}];;;;;;[{'start': 17, 'end': 22}];;;;
дніпропетровська 50000 кривий ріг кривий ріг вул. космонавтів 27 104;;;[{'start': 0, 'end': 16}];;[{'start': 23, 'end': 29}, {'start': 30, 'end': 33}];;;[{'start': 34, 'end': 40}, {'start': 41, 'end': 44}];[{'start': 45, 'end': 49}];[{'start': 50, 'end': 61}];;;;;;[{'start': 62, 'end': 64}];;;;;[{'start': 65, 'end': 68}];;;;;;[{'start': 17, 'end': 22}];;;;
дніпропетровська 49000 томаківський с. настасівка томаківський р-н вул. петровського 68;;;[{'start': 0, 'end': 16}];[{'start': 63, 'end': 66}];[{'start': 50, 'end': 62}];;[{'start': 36, 'end': 38}];[{'start': 39, 'end': 49}];[{'start': 67, 'end': 71}];[{'start': 72, 'end': 84}];;;;;;[{'start': 85, 'end': 87}];;;;;;;;;;;[{'start': 17, 'end': 22}];;;;
дніпропетровська 52340 с. світлогірське дніпропетровська обл. криничанський район с. сві;;[{'start': 57, 'end': 61}];[{'start': 40, 'end': 56}];[{'start': 76, 'end': 81}];[{'start': 62, 'end': 75}];;[{'start': 23, 'end': 25}];[{'start': 26, 'end': 39}];;;;;;;;;;;;;;;;;;;[{'start': 17, 'end': 22}];;;;
сумська 02090 м . кромвіль вул. 8 березня 34;;;[{'start': 0, 'end': 7}];;;;[{'start': 14, 'end': 15}, {'start': 16, 'end': 17}];[{'start': 18, 'end': 26}];[{'start': 27, 'end': 31}];[{'start': 32, 'end': 33}, {'start': 34, 'end': 41}];;;;;;[{'start': 42, 'end': 44}];;;;;;;;;;;[{'start': 8, 'end': 13}];;;;
дніпропетровська 49600 смт. черкаське вул. лісна 2 78;;;[{'start': 0, 'end': 16}];;;;[{'start': 23, 'end': 27}];[{'start': 28, 'end': 37}];[{'start': 38, 'end': 42}];[{'start': 43, 'end': 48}];;;;;;[{'start': 49, 'end': 50}];;;;;[{'start': 51, 'end': 53}];;;;;;[{'start': 17, 'end': 22}];;;;
херсонська 74701 нижньосірогозький нижні сірогози вул. калініна 31;;;[{'start': 0, 'end': 10}];;[{'start': 17, 'end': 34}];;;[{'start': 35, 'end': 40}, {'start': 41, 'end': 49}];[{'start': 50, 'end': 54}];[{'start': 55, 'end': 63}];;;;;;[{'start': 64, 'end': 66}];;;;;;;;;;;[{'start': 11, 'end': 16}];;;;
київ 01000 київ київ вул. ново-даркиївницька 6 40;;;[{'start': 0, 'end': 4}];;[{'start': 11, 'end': 15}];;;[{'start': 16, 'end': 20}];[{'start': 21, 'end': 25}];[{'start': 26, 'end': 44}];;;;;;[{'start': 45, 'end': 46}];;;;;[{'start': 47, 'end': 49}];;;;;;[{'start': 5, 'end': 10}];;;;
дніпропетровська 50000 кривий ріг кривий ріг вул. рахманінова буд. 4 а секція 3 кв. 10;;;[{'start': 0, 'end': 16}];;[{'start': 23, 'end': 29}, {'start': 30, 'end': 33}];;;[{'start': 34, 'end': 40}, {'start': 41, 'end': 44}];[{'start': 45, 'end': 49}];[{'start': 50, 'end': 61}];;;;;[{'start': 62, 'end': 66}];[{'start': 67, 'end': 68}, {'start': 69, 'end': 70}];;;;[{'start': 80, 'end': 83}];[{'start': 84, 'end': 86}];;;[{'start': 71, 'end': 77}, {'start': 78, 'end': 79}];;;[{'start': 17, 'end': 22}];;;;
сумська 40000 суми вул. прокоф’єва буд. 44/2 корп. кв. 128;;;[{'start': 0, 'end': 7}];;;;;[{'start': 14, 'end': 18}];[{'start': 19, 'end': 23}];[{'start': 24, 'end': 34}];[{'start': 45, 'end': 50}];;;;[{'start': 35, 'end': 39}];[{'start': 40, 'end': 44}];;;;[{'start': 51, 'end': 54}];[{'start': 55, 'end': 58}];;;;;;[{'start': 8, 'end': 13}];;;;
дніпропетровська 51201 новомосковський новомосковськ червоноармійська 11 26;;;[{'start': 0, 'end': 16}];;[{'start': 23, 'end': 38}];;;[{'start': 39, 'end': 52}];;[{'start': 53, 'end': 69}];;;;;;[{'start': 70, 'end': 72}];;;;;[{'start': 73, 'end': 75}];;;;;;[{'start': 17, 'end': 22}];;;;
київ 01111 київ вул. саперно-слобідська 8 159;;;[{'start': 0, 'end': 4}];;;;;[{'start': 11, 'end': 15}];[{'start': 16, 'end': 20}];[{'start': 21, 'end': 39}];;;;;;[{'start': 40, 'end': 41}];;;;;[{'start': 42, 'end': 45}];;;;;;[{'start': 5, 'end': 10}];;;;
київська 08131 сквирський софіївська борщагівка вулиця толстого 20;;;[{'start': 0, 'end': 8}];;[{'start': 15, 'end': 25}];;;[{'start': 26, 'end': 36}, {'start': 37, 'end': 47}];[{'start': 48, 'end': 54}];[{'start': 55, 'end': 63}];;;;;;[{'start': 64, 'end': 66}];;;;;;;;;;;[{'start': 9, 'end': 14}];;;;
харківська 61000 харків харків 23 серпня 66 9;;;[{'start': 0, 'end': 10}];;[{'start': 17, 'end': 23}];;;[{'start': 24, 'end': 30}];;[{'start': 31, 'end': 33}, {'start': 34, 'end': 40}];;;;;;[{'start': 41, 'end': 43}];;;;;[{'start': 44, 'end': 45}];;;;;;[{'start': 11, 'end': 16}];;;;
чернігівська 14000 козелецький м. остер 8-го березня 14 а 2;;;[{'start': 0, 'end': 12}];;[{'start': 19, 'end': 30}];;[{'start': 31, 'end': 33}];[{'start': 34, 'end': 39}];;[{'start': 40, 'end': 44}, {'start': 45, 'end': 52}];;;;;;[{'start': 53, 'end': 55}, {'start': 56, 'end': 57}];;;;;[{'start': 58, 'end': 59}];;;;;;[{'start': 13, 'end': 18}];;;;
дніпропетровська 49000 дніпропетровськ наб. перемоги 104 а 42;;;[{'start': 0, 'end': 16}];;;;;[{'start': 23, 'end': 38}];[{'start': 39, 'end': 43}];[{'start': 44, 'end': 52}];;;;;;[{'start': 53, 'end': 56}, {'start': 57, 'end': 58}];;;;;[{'start': 59, 'end': 61}];;;;;;[{'start': 17, 'end': 22}];;;;
запорізька 70224 гуляйпільський с. верхня терса вул. леніна 63;;;[{'start': 0, 'end': 10}];;[{'start': 17, 'end': 31}];;[{'start': 32, 'end': 34}];[{'start': 35, 'end': 41}, {'start': 42, 'end': 47}];[{'start': 48, 'end': 52}];[{'start': 53, 'end': 59}];;;;;;[{'start': 60, 'end': 62}];;;;;;;;;;;[{'start': 11, 'end': 16}];;;;
київська 02090 м. київ вул. паустовського 11-а (ч. д.);;;[{'start': 0, 'end': 8}];;;;[{'start': 15, 'end': 17}];[{'start': 18, 'end': 22}];[{'start': 23, 'end': 27}];[{'start': 28, 'end': 41}];;;;;;[{'start': 42, 'end': 46}];;;;;;;;;;;[{'start': 9, 'end': 14}];;;[{'start': 47, 'end': 50}, {'start': 51, 'end': 54}];
чернігівська 15013 сиделівка 30 років перемоги 18;;;[{'start': 0, 'end': 12}];;;;;[{'start': 19, 'end': 28}];;[{'start': 29, 'end': 31}, {'start': 32, 'end': 37}, {'start': 38, 'end': 46}];;;;;;[{'start': 47, 'end': 49}];;;;;;;;;;;[{'start': 13, 'end': 18}];;;;
донецька 87500 маріуполь м. маріуполь бул. 50 років жовтня 15/20 85;;;[{'start': 0, 'end': 8}];;[{'start': 15, 'end': 24}];;[{'start': 25, 'end': 27}];[{'start': 28, 'end': 37}];[{'start': 38, 'end': 42}];[{'start': 43, 'end': 45}, {'start': 46, 'end': 51}, {'start': 52, 'end': 58}];;;;;;[{'start': 59, 'end': 64}];;;;;[{'start': 65, 'end': 67}];;;;;;[{'start': 9, 'end': 14}];;;;
полтавська 39600 кременчуцький м. кременчук вулиця 60 років жовтня 67 13;;;[{'start': 0, 'end': 10}];;[{'start': 17, 'end': 30}];;[{'start': 31, 'end': 33}];[{'start': 34, 'end': 43}];[{'start': 44, 'end': 50}];[{'start': 51, 'end': 53}, {'start': 54, 'end': 59}, {'start': 60, 'end': 66}];;;;;;[{'start': 67, 'end': 69}];;;;;[{'start': 70, 'end': 72}];;;;;;[{'start': 11, 'end': 16}];;;;
київська 09100 білоцерківський біла церква бул. 50 р. перемоги 88 6;;;[{'start': 0, 'end': 8}];;[{'start': 15, 'end': 30}];;;[{'start': 31, 'end': 35}, {'start': 36, 'end': 42}];[{'start': 43, 'end': 47}];[{'start': 48, 'end': 50}, {'start': 51, 'end': 53}, {'start': 54, 'end': 62}];;;;;;[{'start': 63, 'end': 65}];;;;;[{'start': 66, 'end': 67}];;;;;;[{'start': 9, 'end': 14}];;;;
харківська 61000 м. харків вул. роб. ейдемана 15 196;;;[{'start': 0, 'end': 10}];;;;[{'start': 17, 'end': 19}];[{'start': 20, 'end': 26}];[{'start': 27, 'end': 31}];[{'start': 32, 'end': 36}, {'start': 37, 'end': 45}];;;;;;[{'start': 46, 'end': 48}];;;;;[{'start': 49, 'end': 52}];;;;;;[{'start': 11, 'end': 16}];;;;
дніпропетровська 52411 солонянський с. сурсько-михайлівка шевченко 58 а;;;[{'start': 0, 'end': 16}];;[{'start': 23, 'end': 35}];;[{'start': 36, 'end': 38}];[{'start': 39, 'end': 57}];;[{'start': 58, 'end': 66}];;;;;;[{'start': 67, 'end': 69}, {'start': 70, 'end': 71}];;;;;;;;;;;[{'start': 17, 'end': 22}];;;;
одеська 10000 приморський м. одеса тіниста 9/11;;;[{'start': 0, 'end': 7}];;[{'start': 14, 'end': 25}];;[{'start': 26, 'end': 28}];[{'start': 29, 'end': 34}];;[{'start': 35, 'end': 42}];;;;;;[{'start': 43, 'end': 47}];;;;;;;;;;;[{'start': 8, 'end': 13}];;;;
київ 01001 київ київ проспект 40 річчя жовтня 70 12;;;[{'start': 0, 'end': 4}];;[{'start': 11, 'end': 15}];;;[{'start': 16, 'end': 20}];[{'start': 21, 'end': 29}];[{'start': 30, 'end': 32}, {'start': 33, 'end': 38}, {'start': 39, 'end': 45}];;;;;;[{'start': 46, 'end': 48}];;;;;[{'start': 49, 'end': 51}];;;;;;[{'start': 5, 'end': 10}];;;;
дніпропетровська 49000 дніпропетровськ новокримська 6;;;[{'start': 0, 'end': 16}];;;;;[{'start': 23, 'end': 38}];;[{'start': 39, 'end': 51}];;;;;;[{'start': 52, 'end': 53}];;;;;;;;;;;[{'start': 17, 'end': 22}];;;;
дніпропетровська 53225 никопольский никополь ул. добролюбова дом 21/4 кв. 23;;;[{'start': 0, 'end': 16}];;[{'start': 23, 'end': 35}];;;[{'start': 36, 'end': 44}];[{'start': 45, 'end': 48}];[{'start': 49, 'end': 60}];;;;;[{'start': 61, 'end': 64}];[{'start': 65, 'end': 69}];;;;[{'start': 70, 'end': 73}];[{'start': 74, 'end': 76}];;;;;;[{'start': 17, 'end': 22}];;;;
одеська 65000 м. одеса вул. фонтанська дорога 8/1 4;;;[{'start': 0, 'end': 7}];;;;[{'start': 14, 'end': 16}];[{'start': 17, 'end': 22}];[{'start': 23, 'end': 27}];[{'start': 28, 'end': 38}, {'start': 39, 'end': 45}];;;;;;[{'start': 46, 'end': 49}];;;;;[{'start': 50, 'end': 51}];;;;;;[{'start': 8, 'end': 13}];;;;
полтавська 39600 кременчуцький кременчук волочаєвська 32;;;[{'start': 0, 'end': 10}];;[{'start': 17, 'end': 30}];;;[{'start': 31, 'end': 40}];;[{'start': 41, 'end': 53}];;;;;;[{'start': 54, 'end': 56}];;;;;;;;;;;[{'start': 11, 'end': 16}];;;;
дніпропетровська 53200 нікопольський нікополь барнаульська 30 10;;;[{'start': 0, 'end': 16}];;[{'start': 23, 'end': 36}];;;[{'start': 37, 'end': 45}];;[{'start': 46, 'end': 58}];;;;;;[{'start': 59, 'end': 61}];;;;;[{'start': 62, 'end': 64}];;;;;;[{'start': 17, 'end': 22}];;;;
сумська 40000 м. суми вул. сумсько-київських дивізій 10 8;;;[{'start': 0, 'end': 7}];;;;[{'start': 14, 'end': 16}];[{'start': 17, 'end': 21}];[{'start': 22, 'end': 26}];[{'start': 27, 'end': 44}, {'start': 45, 'end': 52}];;;;;;[{'start': 53, 'end': 55}];;;;;[{'start': 56, 'end': 57}];;;;;;[{'start': 8, 'end': 13}];;;;
івано-франківська 71611 запорізький степногірськ вулиця сухоіванівська 1 42;;;[{'start': 0, 'end': 17}];;[{'start': 24, 'end': 35}];;;[{'start': 36, 'end': 48}];[{'start': 49, 'end': 55}];[{'start': 56, 'end': 70}];;;;;;[{'start': 71, 'end': 72}];;;;;[{'start': 73, 'end': 75}];;;;;;[{'start': 18, 'end': 23}];;;;
дніпропетровська 49021 ленінський м. дніпро вул. каляєва буд 94 кв не існує;;;[{'start': 0, 'end': 16}];;[{'start': 23, 'end': 33}];;[{'start': 34, 'end': 36}];[{'start': 37, 'end': 43}];[{'start': 44, 'end': 48}];[{'start': 49, 'end': 56}];;;;;[{'start': 57, 'end': 60}];[{'start': 61, 'end': 63}];;;;[{'start': 64, 'end': 66}];;;;;;;[{'start': 17, 'end': 22}];;;[{'start': 67, 'end': 69}, {'start': 70, 'end': 75}];
луганська станично-луганський с. плотина вул. першотравнева 50 буд. кв. 1001;;;[{'start': 0, 'end': 9}];;[{'start': 10, 'end': 29}];;[{'start': 30, 'end': 32}];[{'start': 33, 'end': 40}];[{'start': 41, 'end': 45}];[{'start': 46, 'end': 59}];;;;;[{'start': 63, 'end': 67}];[{'start': 60, 'end': 62}];;;;[{'start': 68, 'end': 71}];[{'start': 72, 'end': 76}];;;;;;;;;;
київська 02090 м. київ виборзька 75/79 кв. 114;;;[{'start': 0, 'end': 8}];;;;[{'start': 15, 'end': 17}];[{'start': 18, 'end': 22}];;[{'start': 23, 'end': 32}];;;;;;[{'start': 33, 'end': 38}];;;;[{'start': 39, 'end': 42}];[{'start': 43, 'end': 46}];;;;;;[{'start': 9, 'end': 14}];;;;
дніпропетровська 52610 с-ще васильківка пров. будьонного 5 1;;;[{'start': 0, 'end': 16}];;;;[{'start': 23, 'end': 27}];[{'start': 28, 'end': 39}];[{'start': 40, 'end': 45}];[{'start': 46, 'end': 56}];;;;;;[{'start': 57, 'end': 58}];;;;;[{'start': 59, 'end': 60}];;;;;;[{'start': 17, 'end': 22}];;;;
київ київ ярослава гашика буд. 15 кв. кім 11 1014;;;[{'start': 0, 'end': 4}];;;;;[{'start': 5, 'end': 9}];;[{'start': 10, 'end': 18}, {'start': 19, 'end': 25}];;;;;[{'start': 26, 'end': 30}];[{'start': 31, 'end': 33}];;;;[{'start': 34, 'end': 37}, {'start': 38, 'end': 41}];[{'start': 42, 'end': 44}];;;;;;;[{'start': 45, 'end': 49}];;;
донецька 87500 маріуполь маріуполь пр. м. жукова 60 11;;;[{'start': 0, 'end': 8}];;[{'start': 15, 'end': 24}];;;[{'start': 25, 'end': 34}];[{'start': 35, 'end': 38}];[{'start': 39, 'end': 41}, {'start': 42, 'end': 48}];;;;;;[{'start': 49, 'end': 51}];;;;;[{'start': 52, 'end': 54}];;;;;;[{'start': 9, 'end': 14}];;;;
чернігівська 11117 козелецький смт. козелець вул. чапаєва буд. 43 в/б;;;[{'start': 0, 'end': 12}];;[{'start': 19, 'end': 30}];;[{'start': 31, 'end': 35}];[{'start': 36, 'end': 44}];[{'start': 45, 'end': 49}];[{'start': 50, 'end': 57}];;;;;[{'start': 58, 'end': 62}];[{'start': 63, 'end': 65}];;;;;;;;;;;[{'start': 13, 'end': 18}];;;[{'start': 66, 'end': 69}];
київська 02090 м. київ таращанським рв гу мвс україни в київській обл.;;;[{'start': 0, 'end': 8}];;;;[{'start': 15, 'end': 17}];[{'start': 18, 'end': 22}];;;;;;;;;;;;;;;;;;;[{'start': 9, 'end': 14}];;;[{'start': 23, 'end': 35}, {'start': 36, 'end': 38}, {'start': 39, 'end': 41}, {'start': 42, 'end': 45}, {'start': 46, 'end': 53}, {'start': 54, 'end': 55}, {'start': 56, 'end': 65}, {'start': 66, 'end': 70}];
херсонська 73002 херсон херсон вулиця ст разіна 75 234;;;[{'start': 0, 'end': 10}];;[{'start': 17, 'end': 23}];;;[{'start': 24, 'end': 30}];[{'start': 31, 'end': 37}];[{'start': 38, 'end': 40}, {'start': 41, 'end': 47}];;;;;;[{'start': 48, 'end': 50}];;;;;[{'start': 51, 'end': 54}];;;;;;[{'start': 11, 'end': 16}];;;;
дніпропетровська 49000 дніпро курська 44;;;[{'start': 0, 'end': 16}];;;;;[{'start': 23, 'end': 29}];;[{'start': 30, 'end': 37}];;;;;;[{'start': 38, 'end': 40}];;;;;;;;;;;[{'start': 17, 'end': 22}];;;;
донецька 52640 мар’їнський павлівка провулок садовий 1;;;[{'start': 0, 'end': 8}];;[{'start': 15, 'end': 26}];;;[{'start': 27, 'end': 35}];[{'start': 36, 'end': 44}];[{'start': 45, 'end': 52}];;;;;;[{'start': 53, 'end': 54}];;;;;;;;;;;[{'start': 9, 'end': 14}];;;;
харківська 61000 харків вул. руднева дом № буд. 32 кв. кв. 37;;;[{'start': 0, 'end': 10}];;;;;[{'start': 17, 'end': 23}];[{'start': 24, 'end': 28}];[{'start': 29, 'end': 36}];;;;;[{'start': 37, 'end': 40}, {'start': 41, 'end': 42}, {'start': 43, 'end': 47}];[{'start': 48, 'end': 50}];;;;[{'start': 51, 'end': 54}, {'start': 55, 'end': 58}];[{'start': 59, 'end': 61}];;;;;;[{'start': 11, 'end': 16}];;;;
дніпропетровська 51900 баглійський м. кам’янське (дніпродзе вул. казанська 39 а;;;[{'start': 0, 'end': 16}];;[{'start': 23, 'end': 34}];;[{'start': 35, 'end': 37}];[{'start': 38, 'end': 48}];[{'start': 60, 'end': 64}];[{'start': 65, 'end': 74}];;;;;;[{'start': 75, 'end': 77}, {'start': 78, 'end': 79}];;;;;;;;;;;[{'start': 17, 'end': 22}];;;;[{'start': 49, 'end': 59}]
київ 02090 м. київ драйзера 5 кв. 68 кім. 209;;;[{'start': 0, 'end': 4}];;;;[{'start': 11, 'end': 13}];[{'start': 14, 'end': 18}];;[{'start': 19, 'end': 27}];;;;;;[{'start': 28, 'end': 29}];;;;[{'start': 30, 'end': 33}];[{'start': 34, 'end': 36}];[{'start': 37, 'end': 41}];[{'start': 42, 'end': 45}];;;;[{'start': 5, 'end': 10}];;;;
запорізька 69000 орджонікідзевський м. запоріжжя вул. сорок років рад. україни буд. 64 кім. 34;;;[{'start': 0, 'end': 10}];;[{'start': 17, 'end': 35}];;[{'start': 36, 'end': 38}];[{'start': 39, 'end': 48}];[{'start': 49, 'end': 53}];[{'start': 54, 'end': 59}, {'start': 60, 'end': 65}, {'start': 66, 'end': 70}, {'start': 71, 'end': 78}];;;;;[{'start': 79, 'end': 83}];[{'start': 84, 'end': 86}];;;;[{'start': 87, 'end': 91}];[{'start': 92, 'end': 94}];;;;;;[{'start': 11, 'end': 16}];;;;
дніпропетровська 49000 дніпропетровський днепропетровский р-н будівельників буд. 14 б кв. 2-а;;;[{'start': 0, 'end': 16}];[{'start': 58, 'end': 61}];[{'start': 23, 'end': 40}];;;[{'start': 41, 'end': 57}];;[{'start': 62, 'end': 75}];;;;;[{'start': 76, 'end': 80}];[{'start': 81, 'end': 83}, {'start': 84, 'end': 85}];;;;[{'start': 86, 'end': 89}];[{'start': 90, 'end': 93}];;;;;;[{'start': 17, 'end': 22}];;;;
харківська 61000 комінтернівський м. харків вул. танкопія 10/139;;;[{'start': 0, 'end': 10}];;[{'start': 17, 'end': 33}];;[{'start': 34, 'end': 36}];[{'start': 37, 'end': 43}];[{'start': 44, 'end': 48}];[{'start': 49, 'end': 57}];;;;;;[{'start': 58, 'end': 64}];;;;;;;;;;;[{'start': 11, 'end': 16}];;;;
дніпропетровська 49000 жовтневий дніпро п-рт. к. маркса 3 50;;;[{'start': 0, 'end': 16}];;[{'start': 23, 'end': 32}];;;[{'start': 33, 'end': 39}];[{'start': 40, 'end': 45}];[{'start': 46, 'end': 48}, {'start': 49, 'end': 55}];;;;;;[{'start': 56, 'end': 57}];;;;;[{'start': 58, 'end': 60}];;;;;;[{'start': 17, 'end': 22}];;;;
одеська 67844 овідіопольський кароліно-бугаз вул. приморська 101;;;[{'start': 0, 'end': 7}];;[{'start': 14, 'end': 29}];;;[{'start': 30, 'end': 44}];[{'start': 45, 'end': 49}];[{'start': 50, 'end': 60}];;;;;;[{'start': 61, 'end': 64}];;;;;;;;;;;[{'start': 8, 'end': 13}];;;;
чернівецька 01001 новодністровськ м-н. діброва 1 б 53;;;[{'start': 0, 'end': 11}];;;;;[{'start': 18, 'end': 33}];[{'start': 34, 'end': 38}];[{'start': 39, 'end': 46}];;;;;;[{'start': 47, 'end': 48}, {'start': 49, 'end': 50}];;;;;[{'start': 51, 'end': 53}];;;;;;[{'start': 12, 'end': 17}];;;;
дніпропетровська 53200 п. максимівка вул. нікопольська 6;;;[{'start': 0, 'end': 16}];;;;[{'start': 23, 'end': 25}];[{'start': 26, 'end': 36}];[{'start': 37, 'end': 41}];[{'start': 42, 'end': 54}];;;;;;[{'start': 55, 'end': 56}];;;;;;;;;;;[{'start': 17, 'end': 22}];;;;
херсонська 75630 голопристанський с. стара збур’ївка вул. ворошилова 18;;;[{'start': 0, 'end': 10}];;[{'start': 17, 'end': 33}];;[{'start': 34, 'end': 36}];[{'start': 37, 'end': 42}, {'start': 43, 'end': 52}];[{'start': 53, 'end': 57}];[{'start': 58, 'end': 68}];;;;;;[{'start': 69, 'end': 71}];;;;;;;;;;;[{'start': 11, 'end': 16}];;;;
дніпропетровська 53225 нікопольський м. нікополь вул. слав’янська 229 а;;;[{'start': 0, 'end': 16}];;[{'start': 23, 'end': 36}];;[{'start': 37, 'end': 39}];[{'start': 40, 'end': 48}];[{'start': 49, 'end': 53}];[{'start': 54, 'end': 65}];;;;;;[{'start': 66, 'end': 69}, {'start': 70, 'end': 71}];;;;;;;;;;;[{'start': 17, 'end': 22}];;;;
дніпропетровська 49000 амур-нижньодніпровський дніпро вул. дівоча 8 6 а;;;[{'start': 0, 'end': 16}];;[{'start': 23, 'end': 46}];;;[{'start': 47, 'end': 53}];[{'start': 54, 'end': 58}];[{'start': 59, 'end': 65}];;;;;;[{'start': 66, 'end': 67}];;;;;[{'start': 68, 'end': 69}, {'start': 70, 'end': 71}];;;;;;[{'start': 17, 'end': 22}];;;;
одеська 65001 одеса одеса ак. корольова 71 65;;;[{'start': 0, 'end': 7}];;[{'start': 14, 'end': 19}];;;[{'start': 20, 'end': 25}];;[{'start': 26, 'end': 29}, {'start': 30, 'end': 39}];;;;;;[{'start': 40, 'end': 42}];;;;;[{'start': 43, 'end': 45}];;;;;;[{'start': 8, 'end': 13}];;;;
київська 08623 васильківський смт. калинівка вул. б. хмельницького 30;;;[{'start': 0, 'end': 8}];;[{'start': 15, 'end': 29}];;[{'start': 30, 'end': 34}];[{'start': 35, 'end': 44}];[{'start': 45, 'end': 49}];[{'start': 50, 'end': 52}, {'start': 53, 'end': 66}];;;;;;[{'start': 67, 'end': 69}];;;;;;;;;;;[{'start': 9, 'end': 14}];;;;
дніпропетровська 50000 кривий ріг кривий ріг вул. xxіі п/з’ізду 18 58;;;[{'start': 0, 'end': 16}];;[{'start': 23, 'end': 29}, {'start': 30, 'end': 33}];;;[{'start': 34, 'end': 40}, {'start': 41, 'end': 44}];[{'start': 45, 'end': 49}];[{'start': 50, 'end': 54}, {'start': 55, 'end': 63}];;;;;;[{'start': 64, 'end': 66}];;;;;[{'start': 67, 'end': 69}];;;;;;[{'start': 17, 'end': 22}];;;;
дніпропетровська 53200 нікопольський с. олексіївка вул. б. хмельницького бу 6-а;;;[{'start': 0, 'end': 16}];;[{'start': 23, 'end': 36}];;[{'start': 37, 'end': 39}];[{'start': 40, 'end': 50}];[{'start': 51, 'end': 55}];[{'start': 56, 'end': 58}, {'start': 59, 'end': 72}];;;;;[{'start': 73, 'end': 75}];[{'start': 76, 'end': 79}];;;;;;;;;;;[{'start': 17, 'end': 22}];;;;
дніпропетровська 49000 жовтневий м. дніпро вул. б. слави 3 246;;;[{'start': 0, 'end': 16}];;[{'start': 23, 'end': 32}];;[{'start': 33, 'end': 35}];[{'start': 36, 'end': 42}];[{'start': 43, 'end': 47}];[{'start': 48, 'end': 50}, {'start': 51, 'end': 56}];;;;;;[{'start': 57, 'end': 58}];;;;;[{'start': 59, 'end': 62}];;;;;;[{'start': 17, 'end': 22}];;;;
волинська 50000 кривий ріг кривий ріг вулиця м-н 5 й зарічний 9 13;;;[{'start': 0, 'end': 9}];;[{'start': 16, 'end': 22}, {'start': 23, 'end': 26}];;;[{'start': 27, 'end': 33}, {'start': 34, 'end': 37}];[{'start': 38, 'end': 44}, {'start': 45, 'end': 48}];[{'start': 49, 'end': 50}, {'start': 51, 'end': 52}, {'start': 53, 'end': 61}];;;;;;[{'start': 62, 'end': 63}];;;;;[{'start': 64, 'end': 66}];;;;;;[{'start': 10, 'end': 15}];;;;
дніпропетровська 51200 новомосковський м. новомосковськ пров. тупіковий буд. 15 відсутня.;;;[{'start': 0, 'end': 16}];;[{'start': 23, 'end': 38}];;[{'start': 39, 'end': 41}];[{'start': 42, 'end': 55}];[{'start': 56, 'end': 61}];[{'start': 62, 'end': 71}];;;;;[{'start': 72, 'end': 76}];[{'start': 77, 'end': 79}];;;;;;;;;;;[{'start': 17, 'end': 22}];;;[{'start': 80, 'end': 89}];
хмельницька 61000 харків харків вулиця роганська б. 100 кор б кв. 123;;;[{'start': 0, 'end': 11}];;[{'start': 18, 'end': 24}];;;[{'start': 25, 'end': 31}];[{'start': 32, 'end': 38}];[{'start': 39, 'end': 48}];[{'start': 56, 'end': 59}];[{'start': 60, 'end': 61}];;;[{'start': 49, 'end': 51}];[{'start': 52, 'end': 55}];;;;[{'start': 62, 'end': 65}];[{'start': 66, 'end': 69}];;;;;;[{'start': 12, 'end': 17}];;;;
київська 01100 м. київ вул. в. -стуса буд. № 7 корп. гурт. кв. кім. 708 б;;;[{'start': 0, 'end': 8}];;;;[{'start': 15, 'end': 17}];[{'start': 18, 'end': 22}];[{'start': 23, 'end': 27}];[{'start': 28, 'end': 30}, {'start': 31, 'end': 37}];[{'start': 47, 'end': 52}];;[{'start': 53, 'end': 58}];;[{'start': 38, 'end': 42}, {'start': 43, 'end': 44}];[{'start': 45, 'end': 46}];;;;[{'start': 59, 'end': 62}, {'start': 63, 'end': 67}];[{'start': 68, 'end': 71}, {'start': 72, 'end': 73}];;;;;;[{'start': 9, 'end': 14}];;;;
вінницька 22140 козятинський с. сестринівка вул. садова 28;;;[{'start': 0, 'end': 9}];;[{'start': 16, 'end': 28}];;[{'start': 29, 'end': 31}];[{'start': 32, 'end': 43}];[{'start': 44, 'end': 48}];[{'start': 49, 'end': 55}];;;;;;[{'start': 56, 'end': 58}];;;;;;;;;;;[{'start': 10, 'end': 15}];;;;
дніпропетровська 53275 нікопольський капулівка каховська 44 а;;;[{'start': 0, 'end': 16}];;[{'start': 23, 'end': 36}];;;[{'start': 37, 'end': 46}];;[{'start': 47, 'end': 56}];;;;;;[{'start': 57, 'end': 59}, {'start': 60, 'end': 61}];;;;;;;;;;;[{'start': 17, 'end': 22}];;;;
полтавська 65001 одеса одеса вулиця цветочная б. 15 кв. ч/д;;;[{'start': 0, 'end': 10}];;[{'start': 17, 'end': 22}];;;[{'start': 23, 'end': 28}];[{'start': 29, 'end': 35}];[{'start': 36, 'end': 45}];;;;;[{'start': 46, 'end': 48}];[{'start': 49, 'end': 51}];;;;[{'start': 52, 'end': 55}];;;;;;;[{'start': 11, 'end': 16}];;;[{'start': 56, 'end': 59}];
донецька 50000 кривий ріг кривий ріг проспект перемоги 43 23;;;[{'start': 0, 'end': 8}];;[{'start': 15, 'end': 21}, {'start': 22, 'end': 25}];;;[{'start': 26, 'end': 32}, {'start': 33, 'end': 36}];[{'start': 37, 'end': 45}];[{'start': 46, 'end': 54}];;;;;;[{'start': 55, 'end': 57}];;;;;[{'start': 58, 'end': 60}];;;;;;[{'start': 9, 'end': 14}];;;;
херсонська 75654 голопристанський село. круглоозерка вул. садова 18;;;[{'start': 0, 'end': 10}];;[{'start': 17, 'end': 33}];;[{'start': 34, 'end': 39}];[{'start': 40, 'end': 52}];[{'start': 53, 'end': 57}];[{'start': 58, 'end': 64}];;;;;;[{'start': 65, 'end': 67}];;;;;;;;;;;[{'start': 11, 'end': 16}];;;;
дніпропетровська 49000 м. дніпропетровськ донецьке шосе 129/17;;;[{'start': 0, 'end': 16}];;;;[{'start': 23, 'end': 25}];[{'start': 26, 'end': 41}];[{'start': 51, 'end': 55}];[{'start': 42, 'end': 50}];;;;;;[{'start': 56, 'end': 62}];;;;;;;;;;;[{'start': 17, 'end': 22}];;;;
київ 01001 голосіївський м. київ пр-т 40-річчя жовтня 27 56;;;[{'start': 0, 'end': 4}];;[{'start': 11, 'end': 24}];;[{'start': 25, 'end': 27}];[{'start': 28, 'end': 32}];[{'start': 33, 'end': 37}];[{'start': 38, 'end': 46}, {'start': 47, 'end': 53}];;;;;;[{'start': 54, 'end': 56}];;;;;[{'start': 57, 'end': 59}];;;;;;[{'start': 5, 'end': 10}];;;;
київ 01100 м. київ пр. оболонський. 7-г 54;;;[{'start': 0, 'end': 4}];;;;[{'start': 11, 'end': 13}];[{'start': 14, 'end': 18}];[{'start': 19, 'end': 22}];[{'start': 23, 'end': 35}];;;;;;[{'start': 36, 'end': 39}];;;;;[{'start': 40, 'end': 42}];;;;;;[{'start': 5, 'end': 10}];;;;
київська вишгородський нові петрівці провулок пушкіна буд. 17 кв. 7354;;;[{'start': 0, 'end': 8}];;[{'start': 9, 'end': 22}];;;[{'start': 23, 'end': 27}, {'start': 28, 'end': 36}];[{'start': 37, 'end': 45}];[{'start': 46, 'end': 53}];;;;;[{'start': 54, 'end': 58}];[{'start': 59, 'end': 61}];;;;[{'start': 62, 'end': 65}];;;;;;;[{'start': 66, 'end': 70}];;;;
миколаївська 81139 пустомитівський товщів вулиця немає назви вулиці 103;;;[{'start': 0, 'end': 12}];;[{'start': 19, 'end': 34}];;;[{'start': 35, 'end': 41}];[{'start': 42, 'end': 48}];;;;;;;[{'start': 68, 'end': 71}];;;;;;;;;;;[{'start': 13, 'end': 18}];;;[{'start': 49, 'end': 54}, {'start': 55, 'end': 60}, {'start': 61, 'end': 67}];
донецька 50000 кривий ріг кривий ріг вулиця 22 го п з’їзду 40 19;;;[{'start': 0, 'end': 8}];;[{'start': 15, 'end': 21}, {'start': 22, 'end': 25}];;;[{'start': 26, 'end': 32}, {'start': 33, 'end': 36}];[{'start': 37, 'end': 43}];[{'start': 44, 'end': 46}, {'start': 47, 'end': 49}, {'start': 50, 'end': 51}, {'start': 52, 'end': 58}];;;;;;[{'start': 59, 'end': 61}];;;;;[{'start': 62, 'end': 64}];;;;;;[{'start': 9, 'end': 14}];;;;
львівська 80462 кам’янка-бузький дідилів кн. ольги 42;;;[{'start': 0, 'end': 9}];;[{'start': 16, 'end': 32}];;;[{'start': 33, 'end': 40}];;[{'start': 41, 'end': 44}, {'start': 45, 'end': 50}];;;;;;[{'start': 51, 'end': 53}];;;;;;;;;;;[{'start': 10, 'end': 15}];;;;
полтавська 49000 миргородський м. миргород і. ігнатенка 6/109 110;;;[{'start': 0, 'end': 10}];;[{'start': 17, 'end': 30}];;[{'start': 31, 'end': 33}];[{'start': 34, 'end': 42}];;[{'start': 43, 'end': 45}, {'start': 46, 'end': 55}];;;;;;[{'start': 56, 'end': 61}];;;;;[{'start': 62, 'end': 65}];;;;;;[{'start': 11, 'end': 16}];;;;
сумська 41501 путивльський путивль іоанна путивльського 95 310;;;[{'start': 0, 'end': 7}];;[{'start': 14, 'end': 26}];;;[{'start': 27, 'end': 34}];;[{'start': 35, 'end': 41}, {'start': 42, 'end': 55}];;;;;;[{'start': 56, 'end': 58}];;;;;[{'start': 59, 'end': 62}];;;;;;[{'start': 8, 'end': 13}];;;;
дніпропетровська 49000 м. дніпропетровськ пр-т газ. правда 101 71;;;[{'start': 0, 'end': 16}];;;;[{'start': 23, 'end': 25}];[{'start': 26, 'end': 41}];[{'start': 42, 'end': 46}];[{'start': 47, 'end': 51}, {'start': 52, 'end': 58}];;;;;;[{'start': 59, 'end': 62}];;;;;[{'start': 63, 'end': 65}];;;;;;[{'start': 17, 'end': 22}];;;;
одеська 66706 фрунзівський с. росіянівка без вулиці;;;[{'start': 0, 'end': 7}];;[{'start': 14, 'end': 26}];;[{'start': 27, 'end': 29}];[{'start': 30, 'end': 40}];;;;;;;;;;;;;;;;;;;[{'start': 8, 'end': 13}];;;[{'start': 41, 'end': 44}, {'start': 45, 'end': 51}];
донецька 50000 кривий ріг кривий ріг вулиця адм головко 6 15;;;[{'start': 0, 'end': 8}];;[{'start': 15, 'end': 21}, {'start': 22, 'end': 25}];;;[{'start': 26, 'end': 32}, {'start': 33, 'end': 36}];[{'start': 37, 'end': 43}];[{'start': 44, 'end': 47}, {'start': 48, 'end': 55}];;;;;;[{'start': 56, 'end': 57}];;;;;[{'start': 58, 'end': 60}];;;;;;[{'start': 9, 'end': 14}];;;;
житомирська 01001 м. житомир житомирським мв умвс україни в житомирській обл;;;[{'start': 0, 'end': 11}];;;;[{'start': 18, 'end': 20}];[{'start': 21, 'end': 28}];;;;;;;;;;;;;;;;;;;[{'start': 12, 'end': 17}];;;[{'start': 29, 'end': 41}, {'start': 42, 'end': 44}, {'start': 45, 'end': 49}, {'start': 50, 'end': 57}, {'start': 58, 'end': 59}, {'start': 60, 'end': 72}, {'start': 73, 'end': 76}];
кіровоградська 01001 васильківський київ вулиця ю фучика 13 7;;;[{'start': 0, 'end': 14}];;[{'start': 21, 'end': 35}];;;[{'start': 36, 'end': 40}];[{'start': 41, 'end': 47}];[{'start': 48, 'end': 49}, {'start': 50, 'end': 56}];;;;;;[{'start': 57, 'end': 59}];;;;;[{'start': 60, 'end': 61}];;;;;;[{'start': 15, 'end': 20}];;;;
івано-франківська 77601 рожнятівський рожнятів гагаріна 10 15;;;[{'start': 0, 'end': 17}];;[{'start': 24, 'end': 37}];;;[{'start': 38, 'end': 46}];;[{'start': 47, 'end': 55}];;;;;;[{'start': 56, 'end': 58}];;;;;[{'start': 59, 'end': 61}];;;;;;[{'start': 18, 'end': 23}];;;;
дніпропетровська 49000 м. дніпро г. сталінграда буд 5-а гуртожиток;;;[{'start': 0, 'end': 16}];;;;[{'start': 23, 'end': 25}];[{'start': 26, 'end': 32}];;[{'start': 33, 'end': 35}, {'start': 36, 'end': 47}];;;[{'start': 56, 'end': 66}];;[{'start': 48, 'end': 51}];[{'start': 52, 'end': 55}];;;;;;;;;;;[{'start': 17, 'end': 22}];;;;
дніпропетровська 49000 м. дніпро влу. робоча 24 а 38;;;[{'start': 0, 'end': 16}];;;;[{'start': 23, 'end': 25}];[{'start': 26, 'end': 32}];[{'start': 33, 'end': 37}];[{'start': 38, 'end': 44}];;;;;;[{'start': 45, 'end': 47}, {'start': 48, 'end': 49}];;;;;[{'start': 50, 'end': 52}];;;;;;[{'start': 17, 'end': 22}];;;;
дніпропетровська 51324 юр’ївський водяне леніна 208;;;[{'start': 0, 'end': 16}];;[{'start': 23, 'end': 33}];;;[{'start': 34, 'end': 40}];;[{'start': 41, 'end': 47}];;;;;;[{'start': 48, 'end': 51}];;;;;;;;;;;[{'start': 17, 'end': 22}];;;;
львівська 80400 кам’янка-бузький кам’янка-бузька я. мудрого 42 1;;;[{'start': 0, 'end': 9}];;[{'start': 16, 'end': 32}];;;[{'start': 33, 'end': 48}];;[{'start': 49, 'end': 51}, {'start': 52, 'end': 59}];;;;;;[{'start': 60, 'end': 62}];;;;;[{'start': 63, 'end': 64}];;;;;;[{'start': 10, 'end': 15}];;;;
дніпропетровська 49000 апостолівський дніпропетровськ вулиця михайла максимовича 9 5;;;[{'start': 0, 'end': 16}];;[{'start': 23, 'end': 37}];;;[{'start': 38, 'end': 53}];[{'start': 54, 'end': 60}];[{'start': 61, 'end': 68}, {'start': 69, 'end': 80}];;;;;;[{'start': 81, 'end': 82}];;;;;[{'start': 83, 'end': 84}];;;;;;[{'start': 17, 'end': 22}];;;;
запорізька 71622 василівський верхня криниця вокзальна 49;;;[{'start': 0, 'end': 10}];;[{'start': 17, 'end': 29}];;;[{'start': 30, 'end': 36}, {'start': 37, 'end': 44}];;[{'start': 45, 'end': 54}];;;;;;[{'start': 55, 'end': 57}];;;;;;;;;;;[{'start': 11, 'end': 16}];;;;
луганська 94644 антрацитівський сел. іванівка 1 вул. шкільна 34;;;[{'start': 0, 'end': 9}];;[{'start': 16, 'end': 31}];;[{'start': 32, 'end': 36}];[{'start': 37, 'end': 45}, {'start': 46, 'end': 47}];[{'start': 48, 'end': 52}];[{'start': 53, 'end': 60}];;;;;;[{'start': 61, 'end': 63}];;;;;;;;;;;[{'start': 10, 'end': 15}];;;;
харківська 64201 балаклійський балаклія пров. ніжне-садовий 2 303;;;[{'start': 0, 'end': 10}];;[{'start': 17, 'end': 30}];;;[{'start': 31, 'end': 39}];[{'start': 40, 'end': 45}];[{'start': 46, 'end': 59}];;;;;;[{'start': 60, 'end': 61}];;;;;[{'start': 62, 'end': 65}];;;;;;[{'start': 11, 'end': 16}];;;;
дніпропетровська 11111 м. дніпропетровськ вул. героївсталінграду 46 6;;;[{'start': 0, 'end': 16}];;;;[{'start': 23, 'end': 25}];[{'start': 26, 'end': 41}];[{'start': 42, 'end': 46}];[{'start': 47, 'end': 64}];;;;;;[{'start': 65, 'end': 67}];;;;;[{'start': 68, 'end': 69}];;;;;;[{'start': 17, 'end': 22}];;;;
київ 01001 київ київ лит. вольгемут 4 51;;;[{'start': 0, 'end': 4}];;[{'start': 11, 'end': 15}];;;[{'start': 16, 'end': 20}];;[{'start': 21, 'end': 25}, {'start': 26, 'end': 35}];;;;;;[{'start': 36, 'end': 37}];;;;;[{'start': 38, 'end': 40}];;;;;;[{'start': 5, 'end': 10}];;;;
дніпропетровська 49000 дніпро дніпро вул. агнії барто 19 110;;;[{'start': 0, 'end': 16}];;[{'start': 23, 'end': 29}];;;[{'start': 30, 'end': 36}];[{'start': 37, 'end': 41}];[{'start': 42, 'end': 47}, {'start': 48, 'end': 53}];;;;;;[{'start': 54, 'end': 56}];;;;;[{'start': 57, 'end': 60}];;;;;;[{'start': 17, 'end': 22}];;;;
дніпропетровська 53200 нікопольський м. нікополь пр ударний 35;;;[{'start': 0, 'end': 16}];;[{'start': 23, 'end': 36}];;[{'start': 37, 'end': 39}];[{'start': 40, 'end': 48}];[{'start': 49, 'end': 51}];[{'start': 52, 'end': 59}];;;;;;[{'start': 60, 'end': 62}];;;;;;;;;;;[{'start': 17, 'end': 22}];;;;
дніпропетровська 53200 нікопольський нікополь ел. металургів 44 30;;;[{'start': 0, 'end': 16}];;[{'start': 23, 'end': 36}];;;[{'start': 37, 'end': 45}];;[{'start': 46, 'end': 49}, {'start': 50, 'end': 60}];;;;;;[{'start': 61, 'end': 63}];;;;;[{'start': 64, 'end': 66}];;;;;;[{'start': 17, 'end': 22}];;;;
одеська 01100 великомихайлівський велика михайлівка жуковського 4 13;;;[{'start': 0, 'end': 7}];;[{'start': 14, 'end': 33}];;;[{'start': 34, 'end': 40}, {'start': 41, 'end': 51}];;[{'start': 52, 'end': 63}];;;;;;[{'start': 64, 'end': 65}];;;;;[{'start': 66, 'end': 68}];;;;;;[{'start': 8, 'end': 13}];;;;
київська, 11111 , бородянський р-н, смт немішаєве, вул. жовтнева, 2;;;[{'start': 0, 'end': 8}];[{'start': 31, 'end': 34}];[{'start': 18, 'end': 30}];;[{'start': 36, 'end': 39}];[{'start': 40, 'end': 49}];[{'start': 51, 'end': 55}];[{'start': 56, 'end': 64}];;;;;;[{'start': 66, 'end': 67}];;;;;;;;;;;[{'start': 10, 'end': 15}];;;;
дніпропетровська 49125 амур-нижньодніпровський дніпропетровськ ул. березинская 25/68;;;[{'start': 0, 'end': 16}];;[{'start': 23, 'end': 46}];;;[{'start': 47, 'end': 62}];[{'start': 63, 'end': 66}];[{'start': 67, 'end': 78}];;;;;;[{'start': 79, 'end': 84}];;;;;;;;;;;[{'start': 17, 'end': 22}];;;;
одеська 65000 одеса одеса вул. академіка заболотного буд. 57 корпус 2 кв.;;;[{'start': 0, 'end': 7}];;[{'start': 14, 'end': 19}];;;[{'start': 20, 'end': 25}];[{'start': 26, 'end': 30}];[{'start': 31, 'end': 40}, {'start': 41, 'end': 52}];[{'start': 61, 'end': 67}];[{'start': 68, 'end': 69}];;;[{'start': 53, 'end': 57}];[{'start': 58, 'end': 60}];;;;[{'start': 70, 'end': 73}];;;;;;;[{'start': 8, 'end': 13}];;;;
запорізька 69000 пологівський пологи ул. потёмкина 1 б-9;;;[{'start': 0, 'end': 10}];;[{'start': 17, 'end': 29}];;;[{'start': 30, 'end': 36}];[{'start': 37, 'end': 40}];[{'start': 41, 'end': 50}];;;;;;[{'start': 51, 'end': 52}, {'start': 53, 'end': 56}];;;;;;;;;;;[{'start': 11, 'end': 16}];;;;
дніпропетровська 52000 м. дніпродзержинськ пр. дружбы народов 53 а/34;;;[{'start': 0, 'end': 16}];;;;[{'start': 23, 'end': 25}];[{'start': 26, 'end': 42}];[{'start': 43, 'end': 46}];[{'start': 47, 'end': 53}, {'start': 54, 'end': 61}];;;;;;[{'start': 62, 'end': 64}, {'start': 65, 'end': 69}];;;;;;;;;;;[{'start': 17, 'end': 22}];;;;
дніпропетровська 53200 никопольский никополь л. украинки 45 г;;;[{'start': 0, 'end': 16}];;[{'start': 23, 'end': 35}];;;[{'start': 36, 'end': 44}];;[{'start': 45, 'end': 47}, {'start': 48, 'end': 56}];;;;;;[{'start': 57, 'end': 59}, {'start': 60, 'end': 61}];;;;;;;;;;;[{'start': 17, 'end': 22}];;;;
дніпропетровська 49125 дніпро пров. л. мокієвської 20 91;;;[{'start': 0, 'end': 16}];;;;;[{'start': 23, 'end': 29}];[{'start': 30, 'end': 35}];[{'start': 36, 'end': 38}, {'start': 39, 'end': 50}];;;;;;[{'start': 51, 'end': 53}];;;;;[{'start': 54, 'end': 56}];;;;;;[{'start': 17, 'end': 22}];;;;
харківська 61000 харків в кільцева 14 40;;;[{'start': 0, 'end': 10}];;;;;[{'start': 17, 'end': 23}];;[{'start': 24, 'end': 25}, {'start': 26, 'end': 34}];;;;;;[{'start': 35, 'end': 37}];;;;;[{'start': 38, 'end': 40}];;;;;;[{'start': 11, 'end': 16}];;;;
харківська с бугаївка (революційне) вулиця польова 17;;;[{'start': 0, 'end': 10}];;;;[{'start': 11, 'end': 12}];[{'start': 13, 'end': 21}];[{'start': 36, 'end': 42}];[{'start': 43, 'end': 50}];;;;;;[{'start': 51, 'end': 53}];;;;;;;;;;;;;;;[{'start': 22, 'end': 35}]
43000 волинська ковельський с. мощена 1-го травня вул. буд. 55;;;[{'start': 6, 'end': 15}];;[{'start': 16, 'end': 27}];;[{'start': 28, 'end': 30}];[{'start': 31, 'end': 37}];[{'start': 50, 'end': 54}];[{'start': 38, 'end': 42}, {'start': 43, 'end': 49}];;;;;[{'start': 55, 'end': 59}];[{'start': 60, 'end': 62}];;;;;;;;;;;[{'start': 0, 'end': 5}];;;;
донецька амросіївський ленінське вул. миру буд. 14;;;[{'start': 0, 'end': 8}];;[{'start': 9, 'end': 22}];;;[{'start': 23, 'end': 32}];[{'start': 33, 'end': 37}];[{'start': 38, 'end': 42}];;;;;[{'start': 43, 'end': 47}];[{'start': 48, 'end': 50}];;;;;;;;;;;;;;;
63512 харківська чугуївський кам’яна яруга вул. кірова буд. 37;;;[{'start': 6, 'end': 16}];;[{'start': 17, 'end': 28}];;;[{'start': 29, 'end': 36}, {'start': 37, 'end': 42}];[{'start': 43, 'end': 47}];[{'start': 48, 'end': 54}];;;;;[{'start': 55, 'end': 59}];[{'start': 60, 'end': 62}];;;;;;;;;;;[{'start': 0, 'end': 5}];;;;
автономна республіка крим сімферополь сімферополь підлісна 5;;;[{'start': 0, 'end': 9}, {'start': 10, 'end': 20}, {'start': 21, 'end': 25}];;[{'start': 26, 'end': 37}];;;[{'start': 38, 'end': 49}];;[{'start': 50, 'end': 58}];;;;;;[{'start': 59, 'end': 60}];;;;;;;;;;;;;;;
52005 дніпропетровська дн?пропетровський м. п?дгородне;;;[{'start': 6, 'end': 22}];;[{'start': 23, 'end': 40}];;[{'start': 41, 'end': 43}];[{'start': 44, 'end': 54}];;;;;;;;;;;;;;;;;;;[{'start': 0, 'end': 5}];;;;
87500 маріуполь вел. азовська 26;;;;;;;;[{'start': 6, 'end': 15}];[{'start': 16, 'end': 20}];[{'start': 21, 'end': 29}];;;;;;[{'start': 30, 'end': 32}];;;;;;;;;;;[{'start': 0, 'end': 5}];;;;
дніпропетровська область дніпродзержинськ місто дніпродзержинськ пр-т 40 лет победи буд. 3 кв. 52;;[{'start': 17, 'end': 24}];[{'start': 0, 'end': 16}];;[{'start': 25, 'end': 41}];;[{'start': 42, 'end': 47}];[{'start': 48, 'end': 64}];[{'start': 65, 'end': 69}];[{'start': 70, 'end': 72}, {'start': 73, 'end': 76}, {'start': 77, 'end': 83}];;;;;[{'start': 84, 'end': 88}];[{'start': 89, 'end': 90}];;;;[{'start': 91, 'end': 94}];[{'start': 95, 'end': 97}];;;;;;;;;;
86211 донецька шахтарський шахтарськ мкр. журавлівка 12/10;;;[{'start': 6, 'end': 14}];;[{'start': 15, 'end': 26}];;;[{'start': 27, 'end': 36}];[{'start': 37, 'end': 41}];[{'start': 42, 'end': 52}];;;;;;[{'start': 53, 'end': 58}];;;;;;;;;;;[{'start': 0, 'end': 5}];;;;
69000 запорізька ожонікідзовський запоріжжя н-дніпровська 6 б/152;;;[{'start': 6, 'end': 16}];[{'start': 17, 'end': 33}];;;[{'start': 34, 'end': 43}];;;[{'start': 44, 'end': 57}];;;;;;[{'start': 58, 'end': 59}];[{'start': 60, 'end': 65}];;;;;;;;;;[{'start': 0, 'end': 5}];;;;
житомирська володарсько-волинський хичів некрасова буд. 9;;;[{'start': 0, 'end': 11}];;[{'start': 12, 'end': 34}];;;[{'start': 35, 'end': 40}];;[{'start': 41, 'end': 50}];;;;;[{'start': 51, 'end': 55}];[{'start': 56, 'end': 57}];;;;;;;;;;;;;;;
84500 донецька часів яр вул. залізнична буд. 40 кв.;;;[{'start': 6, 'end': 14}];;;;;[{'start': 15, 'end': 20}, {'start': 21, 'end': 23}];[{'start': 24, 'end': 28}];[{'start': 29, 'end': 39}];;;;;[{'start': 40, 'end': 44}];[{'start': 45, 'end': 47}];;;;[{'start': 48, 'end': 51}];;;;;;;[{'start': 0, 'end': 5}];;;;
94500 луганська краснолучський м. красний луч мікр-н 4 1 а/26;;;[{'start': 6, 'end': 15}];;[{'start': 16, 'end': 30}];;[{'start': 31, 'end': 33}];[{'start': 34, 'end': 41}, {'start': 42, 'end': 45}];[{'start': 46, 'end': 52}];[{'start': 53, 'end': 54}];;;;;;[{'start': 55, 'end': 56}];[{'start': 57, 'end': 61}];;;;;;;;;;[{'start': 0, 'end': 5}];;;;
94600 луганська м. красниій луч вул. мікро 2 15 б/40;;;[{'start': 6, 'end': 15}];;;;[{'start': 16, 'end': 18}];[{'start': 19, 'end': 27}, {'start': 28, 'end': 31}];[{'start': 32, 'end': 36}, {'start': 37, 'end': 42}];[{'start': 43, 'end': 44}];;;;;;[{'start': 45, 'end': 47}];[{'start': 48, 'end': 52}];;;;;;;;;;[{'start': 0, 'end': 5}];;;;
харьковская чкаловское ленина 22 кв. 9;;;[{'start': 0, 'end': 11}];;;;;[{'start': 12, 'end': 22}];;[{'start': 23, 'end': 29}];;;;;;[{'start': 30, 'end': 32}];;;;[{'start': 33, 'end': 36}];[{'start': 37, 'end': 38}];;;;;;;;;;
01000 україна запорізька оріхівський с. новояковлівка вул. кібенка буд. 13;[{'start': 6, 'end': 13}];;[{'start': 14, 'end': 24}];;[{'start': 25, 'end': 36}];;[{'start': 37, 'end': 39}];[{'start': 40, 'end': 53}];[{'start': 54, 'end': 58}];[{'start': 59, 'end': 66}];;;;;[{'start': 67, 'end': 71}];[{'start': 72, 'end': 74}];;;;;;;;;;;[{'start': 0, 'end': 5}];;;;
26600 кировоградская пгт ольшанка переулок синюхи 5 кв. 24;;;[{'start': 6, 'end': 20}];;;;[{'start': 21, 'end': 24}];[{'start': 25, 'end': 33}];[{'start': 34, 'end': 42}];[{'start': 43, 'end': 49}];;;;;;[{'start': 50, 'end': 51}];;;;[{'start': 52, 'end': 55}];[{'start': 56, 'end': 58}];;;;;;[{'start': 0, 'end': 5}];;;;
68091 одесская черноморск пгт. александровка 28 а;;;[{'start': 6, 'end': 14}];;;[{'start': 15, 'end': 25}];[{'start': 26, 'end': 30}];[{'start': 31, 'end': 44}];;;;;;;;[{'start': 45, 'end': 47}];[{'start': 48, 'end': 49}];;;;;;;;;;[{'start': 0, 'end': 5}];;;;
дніпропетровська смт юр’ївка вулиця кірова 42;;;[{'start': 0, 'end': 16}];;;;[{'start': 17, 'end': 20}];[{'start': 21, 'end': 28}];[{'start': 29, 'end': 35}];[{'start': 36, 'end': 42}];;;;;;[{'start': 43, 'end': 45}];;;;;;;;;;;;;;;
житомирська с в’язівка вулиця молодіжна 7;;;[{'start': 0, 'end': 11}];;;;[{'start': 12, 'end': 13}];[{'start': 14, 'end': 22}];[{'start': 23, 'end': 29}];[{'start': 30, 'end': 39}];;;;;;[{'start': 40, 'end': 41}];;;;;;;;;;;;;;;
43000 волинська м. луцьк б-р. дружби народів буд. 11 кв. 141;;;[{'start': 6, 'end': 15}];;;;[{'start': 16, 'end': 18}];[{'start': 19, 'end': 24}];[{'start': 25, 'end': 29}];[{'start': 30, 'end': 36}, {'start': 37, 'end': 44}];;;;;[{'start': 45, 'end': 49}];[{'start': 50, 'end': 52}];;;;[{'start': 53, 'end': 56}];[{'start': 57, 'end': 60}];;;;;;[{'start': 0, 'end': 5}];;;;
51900 дніпропетровська дніпровський дніпродзержинськ вул. харитонова буд. 26 кв. 16;;;[{'start': 6, 'end': 22}];;[{'start': 23, 'end': 35}];;;[{'start': 36, 'end': 52}];[{'start': 53, 'end': 57}];[{'start': 58, 'end': 68}];;;;;[{'start': 69, 'end': 73}];[{'start': 74, 'end': 76}];;;;[{'start': 77, 'end': 80}];[{'start': 81, 'end': 83}];;;;;;[{'start': 0, 'end': 5}];;;;
44700 харківська область куп’янський район смородьківка молодіжна буд. 10;;[{'start': 17, 'end': 24}];[{'start': 6, 'end': 16}];[{'start': 37, 'end': 42}];[{'start': 25, 'end': 36}];;;[{'start': 43, 'end': 55}];;[{'start': 56, 'end': 65}];;;;;[{'start': 66, 'end': 70}];[{'start': 71, 'end': 73}];;;;;;;;;;;[{'start': 0, 'end': 5}];;;;
62433 харківська обл. харківський р-н люботин в’їзд. підгірний буд. 4;;[{'start': 17, 'end': 21}];[{'start': 6, 'end': 16}];[{'start': 34, 'end': 37}];[{'start': 22, 'end': 33}];;;[{'start': 38, 'end': 45}];[{'start': 46, 'end': 52}];[{'start': 53, 'end': 62}];;;;;[{'start': 63, 'end': 67}];[{'start': 68, 'end': 69}];;;;;;;;;;;[{'start': 0, 'end': 5}];;;;
херсонська смт велика олександрівка вулиця с. насальського 26;;;[{'start': 0, 'end': 10}];;;;[{'start': 11, 'end': 14}];[{'start': 15, 'end': 21}, {'start': 22, 'end': 35}];[{'start': 36, 'end': 42}];[{'start': 43, 'end': 45}, {'start': 46, 'end': 58}];;;;;;[{'start': 59, 'end': 61}];;;;;;;;;;;;;;;
86700 донецька кіровське кіровське вул. пархоменко 2/1;;;[{'start': 6, 'end': 14}];;;[{'start': 15, 'end': 24}];;[{'start': 25, 'end': 34}];[{'start': 35, 'end': 39}];[{'start': 40, 'end': 50}];;;;;;[{'start': 51, 'end': 54}];;;;;;;;;;;[{'start': 0, 'end': 5}];;;;
87400 донецька мангушський мангуш вул. горького буд. 6 кв.;;;[{'start': 6, 'end': 14}];;[{'start': 15, 'end': 26}];;;[{'start': 27, 'end': 33}];[{'start': 34, 'end': 38}];[{'start': 39, 'end': 47}];;;;;[{'start': 48, 'end': 52}];[{'start': 53, 'end': 54}];;;;[{'start': 55, 'end': 58}];;;;;;;[{'start': 0, 'end': 5}];;;;
чернігівська щорський щорс п. сагайдачного 5/3;;;[{'start': 0, 'end': 12}];;[{'start': 13, 'end': 21}];;;[{'start': 22, 'end': 26}];;[{'start': 27, 'end': 29}, {'start': 30, 'end': 42}];;;;;;[{'start': 43, 'end': 46}];;;;;;;;;;;;;;;
черкаська чигиринський топилівка вул. слави буд. 6;;;[{'start': 0, 'end': 9}];;[{'start': 10, 'end': 22}];;;[{'start': 23, 'end': 32}];[{'start': 33, 'end': 37}];[{'start': 38, 'end': 43}];;;;;[{'start': 44, 'end': 48}];[{'start': 49, 'end': 50}];;;;;;;;;;;;;;;
донецька обл м. святогірськ вул. 1 мая б. 56;;[{'start': 9, 'end': 12}];[{'start': 0, 'end': 8}];;;;[{'start': 13, 'end': 15}];[{'start': 16, 'end': 27}];[{'start': 28, 'end': 32}];[{'start': 33, 'end': 34}, {'start': 35, 'end': 38}];;;;;[{'start': 39, 'end': 41}];[{'start': 42, 'end': 44}];;;;;;;;;;;;;;;
23053 бар копайгород;;;;;[{'start': 6, 'end': 9}];;;[{'start': 10, 'end': 20}];;;;;;;;;;;;;;;;;;;[{'start': 0, 'end': 5}];;;;
84629 донецька обл микитівський горлівка вул. казарцева буд. 3 кв. 28;;[{'start': 15, 'end': 18}];[{'start': 6, 'end': 14}];;[{'start': 19, 'end': 31}];;;[{'start': 32, 'end': 40}];[{'start': 41, 'end': 45}];[{'start': 46, 'end': 55}];;;;;[{'start': 56, 'end': 60}];[{'start': 61, 'end': 62}];;;;[{'start': 63, 'end': 66}];[{'start': 67, 'end': 69}];;;;;;[{'start': 0, 'end': 5}];;;;
93701 луганська слов’яносербський слов’яносербськ вул. кірова 151 а;;;[{'start': 6, 'end': 15}];;[{'start': 16, 'end': 33}];;;[{'start': 34, 'end': 49}];[{'start': 50, 'end': 54}];[{'start': 55, 'end': 61}];;;;;;[{'start': 62, 'end': 65}];[{'start': 66, 'end': 67}];;;;;;;;;;[{'start': 0, 'end': 5}];;;;
донецька обл кіровський кіровське м-р горняцький 13 кв 61-62;;[{'start': 9, 'end': 12}];[{'start': 0, 'end': 8}];;[{'start': 13, 'end': 23}];;;[{'start': 24, 'end': 33}];[{'start': 34, 'end': 37}];[{'start': 38, 'end': 48}];;;;;;[{'start': 49, 'end': 51}];;;;[{'start': 52, 'end': 54}];[{'start': 55, 'end': 60}];;;;;;;;;;
01001 київ місто київ місто київ полярна буд. 3 кв. 304;;;[{'start': 6, 'end': 10}];;;;[{'start': 11, 'end': 16}];[{'start': 17, 'end': 21}];;[{'start': 33, 'end': 40}];;;;;[{'start': 41, 'end': 45}];[{'start': 46, 'end': 47}];;;;[{'start': 48, 'end': 51}];[{'start': 52, 'end': 55}];;;;;;[{'start': 0, 'end': 5}];;;;
02097 київ київ 02097 київ місто;;;[{'start': 6, 'end': 10}];;;;;[{'start': 11, 'end': 15}];;;;;;;;;;;;;;;;;;;[{'start': 0, 'end': 5}];;;;
83000 донецька г. макеевка нзеленыйдом № 70 кв 68;;;[{'start': 6, 'end': 14}];;;;[{'start': 15, 'end': 17}];[{'start': 18, 'end': 26}];;[{'start': 27, 'end': 38}];;;;;[{'start': 39, 'end': 40}];[{'start': 41, 'end': 43}];;;;[{'start': 44, 'end': 46}];[{'start': 47, 'end': 49}];;;;;;[{'start': 0, 'end': 5}];;;;
житомирська смт хорошів (володарськ-волинський) вулиця мельнична 19 2;;;[{'start': 0, 'end': 11}];;;;[{'start': 12, 'end': 15}];[{'start': 16, 'end': 23}];[{'start': 48, 'end': 54}];[{'start': 55, 'end': 64}];;;;;;[{'start': 65, 'end': 67}];;;;;[{'start': 68, 'end': 69}];;;;;;;;;;
дніпропетровська криворізький інгулець (чкалівська сільська рада) недєліна 22 кв. 3;;;[{'start': 0, 'end': 16}];;[{'start': 17, 'end': 29}];[{'start': 39, 'end': 50}, {'start': 51, 'end': 59}, {'start': 60, 'end': 65}];;[{'start': 30, 'end': 38}];;[{'start': 66, 'end': 74}];;;;;;[{'start': 75, 'end': 77}];;;;[{'start': 78, 'end': 81}];[{'start': 82, 'end': 83}];;;;;;;;;;
91000 луганська укр укр вул. комунальна 75/3;;;[{'start': 6, 'end': 15}];;;;;;[{'start': 24, 'end': 28}];[{'start': 29, 'end': 39}];;;;;;[{'start': 40, 'end': 44}];;;;;;;;;;;[{'start': 0, 'end': 5}];;;;
91000 луганська луганська н. тарасівка вул. леніна буд. 85;;;[{'start': 6, 'end': 15}];;;;;[{'start': 29, 'end': 38}];[{'start': 39, 'end': 43}];[{'start': 44, 'end': 50}];;;;;[{'start': 51, 'end': 55}];[{'start': 56, 'end': 58}];;;;;;;;;;;[{'start': 0, 'end': 5}];;;;
83058 донецька київським донецьк таганська 2/5;;;[{'start': 6, 'end': 14}];;[{'start': 15, 'end': 24}];;;[{'start': 25, 'end': 32}];;[{'start': 33, 'end': 42}];;;;;;[{'start': 43, 'end': 46}];;;;;;;;;;;[{'start': 0, 'end': 5}];;;;
01000 україна миколаївська березанський с. ташине вул. вишнева буд. 6;[{'start': 6, 'end': 13}];;[{'start': 14, 'end': 26}];;[{'start': 27, 'end': 39}];;[{'start': 40, 'end': 42}];[{'start': 43, 'end': 49}];[{'start': 50, 'end': 54}];[{'start': 55, 'end': 62}];;;;;[{'start': 63, 'end': 67}];[{'start': 68, 'end': 69}];;;;;;;;;;;[{'start': 0, 'end': 5}];;;;
25000 кіровоградська кіровоград вул. космонавта попова буд. 5 кв. 401 а-402 а;;;[{'start': 6, 'end': 20}];;;;;[{'start': 21, 'end': 31}];[{'start': 32, 'end': 36}];[{'start': 37, 'end': 47}, {'start': 48, 'end': 54}];;;;;[{'start': 55, 'end': 59}];[{'start': 60, 'end': 61}];;;;[{'start': 62, 'end': 65}];[{'start': 66, 'end': 69}, {'start': 70, 'end': 75}, {'start': 76, 'end': 77}];;;;;;[{'start': 0, 'end': 5}];;;;
81466 україна львівська самбірський с. гординя вул.;[{'start': 6, 'end': 13}];;[{'start': 14, 'end': 23}];;[{'start': 24, 'end': 35}];;[{'start': 36, 'end': 38}];[{'start': 39, 'end': 46}];[{'start': 47, 'end': 51}];;;;;;;;;;;;;;;;;;[{'start': 0, 'end': 5}];;;;
87504 донецька маріуполь просп. нікопольський буд. 19 кв. 8;;;[{'start': 6, 'end': 14}];;;;;[{'start': 15, 'end': 24}];[{'start': 25, 'end': 31}];[{'start': 32, 'end': 45}];;;;;[{'start': 46, 'end': 50}];[{'start': 51, 'end': 53}];;;;[{'start': 54, 'end': 57}];[{'start': 58, 'end': 59}];;;;;;[{'start': 0, 'end': 5}];;;;
73000 херсонська херсон с. антонівка вул. белінського буд. 2 г;;;[{'start': 6, 'end': 16}];;;[{'start': 17, 'end': 23}];[{'start': 24, 'end': 26}];[{'start': 27, 'end': 36}];[{'start': 37, 'end': 41}];[{'start': 42, 'end': 53}];;;;;[{'start': 54, 'end': 58}];[{'start': 59, 'end': 60}];[{'start': 61, 'end': 62}];;;;;;;;;;[{'start': 0, 'end': 5}];;;;
13400 житомирська андрушівський гальчин набережна 78;;;[{'start': 6, 'end': 17}];;[{'start': 18, 'end': 31}];;;[{'start': 32, 'end': 39}];;[{'start': 40, 'end': 49}];;;;;;[{'start': 50, 'end': 52}];;;;;;;;;;;[{'start': 0, 'end': 5}];;;;
08800 київська миронівський миронівка вул. івана мазепи буд. 10;;;[{'start': 6, 'end': 14}];;[{'start': 15, 'end': 27}];;;[{'start': 28, 'end': 37}];[{'start': 38, 'end': 42}];[{'start': 43, 'end': 48}, {'start': 49, 'end': 55}];;;;;[{'start': 56, 'end': 60}];[{'start': 61, 'end': 63}];;;;;;;;;;;[{'start': 0, 'end': 5}];;;;
62300 хар дерг дергачі вул. свелова буд. 135 кв. 5;;;[{'start': 6, 'end': 9}];;[{'start': 10, 'end': 14}];;;[{'start': 15, 'end': 22}];[{'start': 23, 'end': 27}];[{'start': 28, 'end': 35}];;;;;[{'start': 36, 'end': 40}];[{'start': 41, 'end': 44}];;;;[{'start': 45, 'end': 48}];[{'start': 49, 'end': 50}];;;;;;[{'start': 0, 'end': 5}];;;;
дніпропетровська с грушівка (ленінське) вулиця набережна 12;;;[{'start': 0, 'end': 16}];;;;[{'start': 17, 'end': 18}];[{'start': 19, 'end': 27}];[{'start': 40, 'end': 46}];[{'start': 47, 'end': 56}];;;;;;[{'start': 57, 'end': 59}];;;;;;;;;;;;;;;
68500 одеська тарутинським м-ярославець буд-;;;[{'start': 6, 'end': 13}];;[{'start': 14, 'end': 26}];;;[{'start': 27, 'end': 39}];;;;;;;[{'start': 40, 'end': 44}];;;;;;;;;;;;[{'start': 0, 'end': 5}];;;;
63705 20 куп купянск красная 65 в кв. 27;;;;;[{'start': 9, 'end': 12}];;;[{'start': 13, 'end': 20}];;[{'start': 21, 'end': 28}];;;;;;[{'start': 29, 'end': 31}];[{'start': 32, 'end': 33}];;;[{'start': 34, 'end': 37}];[{'start': 38, 'end': 40}];;;;;;[{'start': 0, 'end': 5}];;;;
91000 луганська україна м. луганськ кв. мирний 10 кв. 94;[{'start': 16, 'end': 23}];;[{'start': 6, 'end': 15}];;;;[{'start': 24, 'end': 26}];[{'start': 27, 'end': 35}];[{'start': 36, 'end': 39}];[{'start': 40, 'end': 46}];;;;;;[{'start': 47, 'end': 49}];;;;[{'start': 50, 'end': 53}];[{'start': 54, 'end': 56}];;;;;;[{'start': 0, 'end': 5}];;;;
дніпропетровська новомосковський мар’янівка (мар’янівська с-р) молодижна 3 кв. 4;;;[{'start': 0, 'end': 16}];;[{'start': 17, 'end': 32}];;;[{'start': 33, 'end': 43}];;[{'start': 63, 'end': 72}];;;;;;[{'start': 73, 'end': 74}];;;;[{'start': 75, 'end': 78}];[{'start': 79, 'end': 80}];;;;;;;;;;
67700 одесская г. б-днестровский ленина 6 кв. 11;;;[{'start': 6, 'end': 14}];;;;[{'start': 15, 'end': 17}];[{'start': 18, 'end': 32}];;[{'start': 33, 'end': 39}];;;;;;[{'start': 40, 'end': 41}];;;;[{'start': 42, 'end': 45}];[{'start': 46, 'end': 48}];;;;;;[{'start': 0, 'end': 5}];;;;
01001 дніпропетровська п’ятихатський п’ятихатки межова буд. 108;;;[{'start': 6, 'end': 22}];;[{'start': 23, 'end': 36}];;;[{'start': 37, 'end': 47}];;[{'start': 48, 'end': 54}];;;;;[{'start': 55, 'end': 59}];[{'start': 60, 'end': 63}];;;;;;;;;;;[{'start': 0, 'end': 5}];;;;
50076 дніпропетровська дніпропетровський орджонікідзе ивана аврамаенка 13;;;[{'start': 6, 'end': 22}];;[{'start': 23, 'end': 40}];;;[{'start': 41, 'end': 53}];;[{'start': 54, 'end': 59}, {'start': 60, 'end': 70}];;;;;;[{'start': 71, 'end': 73}];;;;;;;;;;;[{'start': 0, 'end': 5}];;;;
хмельницька область шепетівський район мокіївці;;[{'start': 12, 'end': 19}];[{'start': 0, 'end': 11}];[{'start': 33, 'end': 38}];[{'start': 20, 'end': 32}];;;[{'start': 39, 'end': 47}];;;;;;;;;;;;;;;;;;;;;;;
житомирська область новоград-волинський район новоград-волинський вул. сергія уварова буд. 39;;[{'start': 12, 'end': 19}];[{'start': 0, 'end': 11}];[{'start': 40, 'end': 45}];[{'start': 20, 'end': 39}];;;[{'start': 46, 'end': 65}];[{'start': 66, 'end': 70}];[{'start': 71, 'end': 77}, {'start': 78, 'end': 85}];;;;;[{'start': 86, 'end': 90}];[{'start': 91, 'end': 93}];;;;;;;;;;;;;;;
київ місто київ місто київ вул. світла буд. 6 в/ч 1498;;;[{'start': 0, 'end': 4}];;;;[{'start': 5, 'end': 10}];[{'start': 11, 'end': 15}];[{'start': 27, 'end': 31}];[{'start': 32, 'end': 38}];;;;;[{'start': 39, 'end': 43}];[{'start': 44, 'end': 45}];;;;;;;;;;;;;;[{'start': 46, 'end': 49}, {'start': 50, 'end': 54}];
харківська область лозівський район лозова вул. благовіщинська буд. 29 кв. 26;;[{'start': 11, 'end': 18}];[{'start': 0, 'end': 10}];[{'start': 30, 'end': 35}];[{'start': 19, 'end': 29}];;;[{'start': 36, 'end': 42}];[{'start': 43, 'end': 47}];[{'start': 48, 'end': 62}];;;;;[{'start': 63, 'end': 67}];[{'start': 68, 'end': 70}];;;;[{'start': 71, 'end': 74}];[{'start': 75, 'end': 77}];;;;;;;;;;
01000 україна дніпропетровська дніпро січових стрільців буд. 86 кв. 28;[{'start': 6, 'end': 13}];;[{'start': 14, 'end': 30}];;;;;[{'start': 31, 'end': 37}];;[{'start': 38, 'end': 45}, {'start': 46, 'end': 55}];;;;;[{'start': 56, 'end': 60}];[{'start': 61, 'end': 63}];;;;[{'start': 64, 'end': 67}];[{'start': 68, 'end': 70}];;;;;;[{'start': 0, 'end': 5}];;;;
01000 україна київська баришівський с. борщів вул. лесі українки буд. 19;[{'start': 6, 'end': 13}];;[{'start': 14, 'end': 22}];;[{'start': 23, 'end': 35}];;[{'start': 36, 'end': 38}];[{'start': 39, 'end': 45}];[{'start': 46, 'end': 50}];[{'start': 51, 'end': 55}, {'start': 56, 'end': 64}];;;;;[{'start': 65, 'end': 69}];[{'start': 70, 'end': 72}];;;;;;;;;;;[{'start': 0, 'end': 5}];;;;
01001 м. київ лесной п-т. буд. 13 кв. 114;;;;;;;[{'start': 6, 'end': 8}];[{'start': 9, 'end': 13}];[{'start': 21, 'end': 25}];[{'start': 14, 'end': 20}];;;;;[{'start': 26, 'end': 30}];[{'start': 31, 'end': 33}];;;;[{'start': 34, 'end': 37}];[{'start': 38, 'end': 41}];;;;;;[{'start': 0, 'end': 5}];;;;
миколаївська область новоодеський район димівське вул. ’ буд. ’;;[{'start': 13, 'end': 20}];[{'start': 0, 'end': 12}];[{'start': 34, 'end': 39}];[{'start': 21, 'end': 33}];;;[{'start': 40, 'end': 49}];[{'start': 50, 'end': 54}];;;;;;[{'start': 57, 'end': 61}];;;;;;;;;;;;;;;;
01001 київська броварський в. димерка вул. ситюнова буд. 51 кв.;;;[{'start': 6, 'end': 14}];;[{'start': 15, 'end': 26}];;;[{'start': 27, 'end': 29}, {'start': 30, 'end': 37}];[{'start': 38, 'end': 42}];[{'start': 43, 'end': 51}];;;;;[{'start': 52, 'end': 56}];[{'start': 57, 'end': 59}];;;;[{'start': 60, 'end': 63}];;;;;;;[{'start': 0, 'end': 5}];;;;
54036 ник ник сливино садовая 19;;;[{'start': 6, 'end': 9}];;[{'start': 10, 'end': 13}];;;[{'start': 14, 'end': 21}];;[{'start': 22, 'end': 29}];;;;;;[{'start': 30, 'end': 32}];;;;;;;;;;;[{'start': 0, 'end': 5}];;;;
59033 чернівецька сторожинецький село їжівці 59033 чернівецька обл.;;[{'start': 63, 'end': 67}];[{'start': 6, 'end': 17}];;[{'start': 18, 'end': 32}];;[{'start': 33, 'end': 37}];[{'start': 38, 'end': 44}];;;;;;;;;;;;;;;;;;;[{'start': 0, 'end': 5}];;;;
87230 донецкая старобешівський новий світ вул. єнергетична б. 2 к. 26;;;[{'start': 6, 'end': 14}];;[{'start': 15, 'end': 30}];;;[{'start': 31, 'end': 36}, {'start': 37, 'end': 41}];[{'start': 42, 'end': 46}];[{'start': 47, 'end': 58}];;;;;[{'start': 59, 'end': 61}];[{'start': 62, 'end': 63}];;;;[{'start': 64, 'end': 66}];[{'start': 67, 'end': 69}];;;;;;[{'start': 0, 'end': 5}];;;;
32600 хиельницька новоушицький браіловка * * * * *садова 17;;;[{'start': 6, 'end': 17}];;[{'start': 18, 'end': 30}];;;[{'start': 31, 'end': 40}];;[{'start': 50, 'end': 56}];;;;;;[{'start': 57, 'end': 59}];;;;;;;;;;;[{'start': 0, 'end': 5}];;;;
донецька м слов’янськ провулок ленинградский 21;;;[{'start': 0, 'end': 8}];;;;[{'start': 9, 'end': 10}];[{'start': 11, 'end': 21}];[{'start': 22, 'end': 30}];[{'start': 31, 'end': 44}];;;;;;[{'start': 45, 'end': 47}];;;;;;;;;;;;;;;
01001 Житомирська Обл. м. Бердичiв вул. Колективiзацiї буд. 19-А;;[{'start': 18, 'end': 22}];[{'start': 6, 'end': 17}];;;;[{'start': 23, 'end': 25}];[{'start': 26, 'end': 34}];[{'start': 35, 'end': 39}];[{'start': 40, 'end': 54}];;;;;[{'start': 55, 'end': 59}];[{'start': 60, 'end': 64}];;;;;;;;;;;[{'start': 0, 'end': 5}];;;;
Івано-Франківська с Грамотне вулиця -;;;[{'start': 0, 'end': 17}];;;;[{'start': 18, 'end': 19}];[{'start': 20, 'end': 28}];[{'start': 29, 'end': 35}];;;;;;;;;;;;;;;;;;;;;;
